id,name,address,latitude,longitude,categories
y7_33jucQRo37eQEshPeMQ,Shoestring Cafe,"4611 No 6 Road, Suite 180, Richmond, BC V6V 2L3, Canada",49.17987407755384,-123.0695583361763,"French, Seafood, Steakhouses"
pgyPhwk3lB1DxedDzygUUg,The Fish Man,"1170-8391 Alexandra Road, Richmond, BC V6X 1C3, Canada",49.1784663,-123.1302516,"Seafood, Chinese, Barbeque"
crM1idgY_glhtxXT5kERNg,Kingyo,"871 Denman Street, Vancouver, BC V6G 2L9, Canada",49.29073911099211,-123.13705023185994,"Japanese, Tapas/Small Plates"
GmEeIcJ9vR04kxzYgPMEgg,Guu with Garlic,"1698 Robson Street, Vancouver, BC V6G 1C7, Canada",49.290249,-123.1338142,"Japanese, Tapas/Small Plates"
4EV_ZcQmjAmP3pmO-_nb2A,Miku,"200 Granville Street, Suite 70, Vancouver, BC V6C 1S4, Canada",49.28691298612272,-123.11304877258942,"Japanese, Sushi Bars"
Hr5sm6NpE6K-98PrqHksbQ,Anar Persian Cuisine,"12051 Third Avenue, Richmond, BC V7E 3A2, Canada",49.1261267,-123.1859049,"Persian/Iranian, Middle Eastern"
-rEA553gskIEHZteI5RExQ,Kirin Seafood Restaurant,"7900 Westminster Hwy, 2nd Fl, Richmond, BC V6X 1A5, Canada",49.16991,-123.13753,"Seafood, Dim Sum, Cantonese"
R1KeQwYWkHczmZjSbfY2XA,Shanghai River,"7831 Westminster Highway, Richmond, BC V6X 4J4, Canada",49.17074,-123.13848,"Chinese, Noodles, Dumplings"
vLbjVhNd73054UVdvOeg7Q,Haidilao Hotpot - Richmond,"5890 No. 3 Road, Suite 200, Richmond, BC V6Y 0C2, Canada",49.17043,-123.13633,"Chinese, Hot Pot"
gt1BSfVFvzI-qHdJ3LUZug,Blue Water Cafe,"1095 Hamilton St, Vancouver, BC V6B 5T4, Canada",49.2761945,-123.1209935,Seafood
3H63O0o-PXy7yW3MtJznOQ,The Story Cafe,"2800 Sexsmith Road, Richmond, BC V6X 1V5, Canada",49.19359319408656,-123.1279178,"Bars, Pizza, Italian"
dQjv55_rr1mdF18H6baRxg,Daddy's Grill,"4020 No 5 Road, Richmond, BC V6X 2V1, Canada",49.1842679432228,-123.091404421526,"Halal, Persian/Iranian, Donairs"
D4hzlt965YCvbB3h2jeWbg,The Northern Cafe and Grill,"1640 East Kent Avenue, Vancouver, BC V5P 2S7, Canada",49.208549754278906,-123.0724741261907,"Cafes, Asian Fusion, Sandwiches"
p5thThuUITUjAy8gS3sPMw,Fable Kitchen,"1944 W 4th Avenue, Vancouver, BC V6J 1M5, Canada",49.2679331,-123.149019,Canadian (New)
52o82-XanIGhqQySWbiuPg,Pink Peppercorn Seafood House,"1485 Kingsway, Vancouver, BC V5N 2R6, Canada",49.2493583,-123.0739159,Seafood
wHTXCWVsx2PYPT21JV-HeQ,Lupo,"869 Hamilton Street, Vancouver, BC V6B 2R7, Canada",49.278222058049096,-123.11735347768747,Italian
lk1xyEwVmB8HIYOiKbkUIw,Nobi Nobi,"11320 Steveston Hwy, Unit 110, Richmond, BC V7A 5J5, Canada",49.133102,-123.098042,Japanese
Ufhxnrt_OJu4jHfVTP3aRQ,Fanny Bay Oyster Bar & Shellfish Market,"762 Cambie St, Vancouver, BC V6B 2P2, Canada",49.2787525,-123.1138689,"Seafood, Seafood Markets"
QzZfjFBnqtBZUUFlWVCd5w,Botanist,"1038 Canada Place, Vancouver, BC V6C 0B9, Canada",49.2883099,-123.1167271,"Canadian (New), Diners, Breakfast & Brunch"
NdEPf2Ls5Ql3_nkwjqKvXA,The Flying Pig - Yaletown,"1168 Hamilton Street, Unit 104, Vancouver, BC V6B 2S2, Canada",49.27501,-123.122,"Canadian (New), Seafood"
3jlW89cDIWtoZQlAKGybMA,G-men Ramen,"8391 Alexandra Road, Suite 1160, Richmond, BC V6X 1C3, Canada",49.1784915815574,-123.129821190468,"Ramen, Noodles"
odUQDozVqxsUtrSX8ENHyA,HK B.B.Q. Master,"4651 No 3 Road, Suite 145, Richmond, BC V6X 2C4, Canada",49.17959228769049,-123.13782401377117,"Barbeque, Cantonese"
rpJpZOvTPbVmBh2goK1iOA,The Mackenzie Room,"415 Powell Street, Vancouver, BC V6A 1G7, Canada",49.2832349,-123.0948578,Canadian (New)
LjdbthVdtLYKSi7iVAFl0g,Jam Cafe on Beatty,"556 Beatty Street, Vancouver, BC V6B 2L3, Canada",49.2802586,-123.1096376,Breakfast & Brunch
qOUHBPt4C2mPLIXhAILX_g,Yue Restaurant,"8351 Alexandra Road, Richmond, BC V6X 1C3, Canada",49.1785842092147,-123.13144294511,"Seafood, Dim Sum, Cantonese"
GXLBC072h5vwBBVRT6E15A,The Fish Counter,"3825 Main Street, Vancouver, BC V5V 3P2, Canada",49.25076,-123.10136,"Fish & Chips, Seafood"
MELmrubCowx8e3G68WTqgQ,Maruhachi Ra-men,"780 Bidwell Street, Vancouver, BC V6G 2J6, Canada",49.2905691,-123.1333951,"Ramen, Noodles"
drhJnjLFI8wsbvOMaVFDSA,Salmon n' Bannock,"1128 W Broadway, Unit 7, Vancouver, BC V6H 1G5, Canada",49.2631378,-123.1296705,Canadian (New)
QmkGDL-8zexdKV3Xcn8ZYg,OEB Breakfast Co. - Yaletown,"1137 Marinaside Crescent, Vancouver, BC V6Z 2Y3, Canada",49.273438,-123.119289,"Breakfast & Brunch, Cocktail Bars, Waffles"
JacdvNp5MjIrn3LNnjQ02A,Bánh Mì Très Bon - Richmond,"1840-4720 McClelland Road, Richmond, BC V6X 0M6, Canada",49.177852,-123.120688,"Vietnamese, Sandwiches, Noodles"
htvl5L_V-zKN0UvUgP60PQ,Robba da Matti,"1127 Mainland Street, Vancouver, BC V6B 5P2, Canada",49.2753397,-123.1208967,"Italian, Tapas Bars"
UebEhMTqHL1XHOtRDmq6PQ,Chau Cafe,"5052 Victoria Drive, Vancouver, BC V5P 3T8, Canada",49.2385534,-123.0652551,"Vietnamese, Coffee & Tea, Cafes"
p41WeMrDri8pxQRZ4k6JhQ,Bruno,"8499 Bridgeport Road, Richmond, BC V6X 1R7, Canada",49.19222284717219,-123.13187616293204,"Seafood, Canadian (New), Cocktail Bars"
WAKwis2gWtNjRqFGkgwORw,AnnaLena,"1809 W 1st Avenue, Vancouver, BC V6J 5B8, Canada",49.2708261,-123.1467714,"Canadian (New), Diners, Bars"
GSg5v3ZJxmMPrlAXqat8tA,Le Crocodile Restaurant,"909 Burrard Street, Suite 100, Vancouver, BC V6Z 2N2, Canada",49.2825393,-123.1252052,French
iid0VenH7rIp3AWuyQAAHw,Saku,"1588 Robson Street, Vancouver, BC V6G 2G5, Canada",49.289223,-123.132266,Japanese
OUzfOoeRg_OY4MChz7VguA,Five Sails Restaurant,"401-999 Canada Place, Vancouver, BC V6C 3E1, Canada",49.2880313351364,-123.113292160758,French
jKO4Og6ucdX2-YCTKQVYjg,Cactus Club Cafe,"1085 Canada Place, Vancouver, BC V6C 3E1, Canada",49.28963138752227,-123.11817709999995,"Canadian (New), Cocktail Bars"
_Ief3C6t-930SBuwvVuDAQ,Tasty Indian Bistro,"8295 Scott Road, Delta, BC V4C 6R1, Canada",49.1547435,-122.8905949,Indian
x9RA_NPjcvQ8-EU28ppBqA,Steveston Pizza Company,"3400 Moncton Street, Suite 100, Richmond, BC V7E 3A2, Canada",49.1250589553541,-123.185554660698,Pizza
_4R46MNkwx9MeOyt0YfNxA,Chambar,"568 Beatty Street, Vancouver, BC V6B 2L3, Canada",49.2801460007961,-123.109925328073,Belgian
NtAiPCm3A14ukgL0oCO91Q,Katsu San,"110-6011 No 1 Road, Richmond, BC V7C 1T4, Canada",49.169982779066,-123.181773349643,Japanese
VPqWLp9kMiZEbctCebIZUA,Medina Cafe,"780 Richards Street, Vancouver, BC V6B 3A4, Canada",49.2804429972571,-123.117036269849,"Breakfast & Brunch, Middle Eastern, Wine Bars"
yeNenSjz_HCqngGFU5d8NQ,Phnom Penh,"244 E Georgia Street, Vancouver, BC V6A 1Z7, Canada",49.278431,-123.098205,"Cambodian, Vietnamese"
5-adl2zPRMgammVOoz5WEg,Published On Main,"3593 Main Street, Vancouver, BC V5V 3N4, Canada",49.25283186017385,-123.10116032897228,"Tapas/Small Plates, Wine Bars, Cocktail Bars"
UCIwZCb5bOhbm037tn3QyA,Fraser Park Restaurant,"4663 Byrne Road, Suite 103, Burnaby, BC V5J 3H6, Canada",49.193718,-122.9971481,"Breakfast & Brunch, German, International"
rmGsHhx-Dn7z9i59VkIkjg,Wild Thyme,"705 12th Street, New Westminster, BC V3M 4J7, Canada",49.2092291,-122.932308,Lebanese
8epZBQPYacy1-KQULLABmg,Alibi Room,"157 Alexander Street, Vancouver, BC V6A 1B8, Canada",49.284201944511,-123.1001915385,"Pubs, Canadian (New), Gastropubs"
iMtUsHOqitE6Aau59K_XRg,Sushi Jin,"750 Nelson Street, Vancouver, BC V6Z 1A8, Canada",49.2795794102629,-123.123817518353,"Japanese, Sushi Bars"
IApa8s-StZo2QcXOyu35tg,Little Minh's,"7533 Market Crossing, Burnaby, BC V5J 0A3, Canada",49.1990675,-122.9799962,Vietnamese
uxHREt3TxRIEfJ8SbWaBkA,Baan Lao Fine Thai Cuisine,"4100 Bayview Street, Richmond, BC V7E 6S8, Canada",49.1231936660221,-123.17862000293508,"Thai, Bars"
2cXOMeyBCx4JFgs5-CJQdQ,Joe Fortes Seafood & Chop House,"777 Thurlow Street, Vancouver, BC V6E 3V5, Canada",49.284968691771624,-123.12455980835064,"Seafood, Steakhouses"
jMz_y_-cWMfiZF7Q5snE6Q,Ramen Danbo - Robson,"1333 Robson Street, Vancouver, BC V6E 2B1, Canada",49.2874959131639,-123.128934167326,"Ramen, Noodles"
uxJqItMyU6pAJxxmveiXBw,Chinatown BBQ,"130 E Pender Street, Vancouver, BC V6A 1T3, Canada",49.280294,-123.1015,"Barbeque, Cantonese"
l6CT7sn3WZsm6y49kLu3LQ,Hei Hei Rice Roll,"2430-8260 Westminster Highway, Richmond, BC V6X 1A7, Canada",49.1700051,-123.1330234,"Noodles, Cantonese"
I0r8kMimYW2BY6lINcZRFA,Kishimoto Japanese Kitchen,"2054 Commercial Drive, Vancouver, BC V5N 4A9, Canada",49.2665099,-123.06935,"Japanese, Sushi Bars"
seDFTCwhSrzOnaj0iYd5Jw,The Dolar Shop - Richmond,"720-5300 No. 3 Rd, Suite 720, Richmond, BC V6X 2C7, Canada",49.1752620984987,-123.134143498425,"Hot Pot, Chinese, Asian Fusion"
CBEdmS6N7NzgOPT5uESuCg,Smokehouse Sandwich,"108-5188 Westminster Highway, Richmond, BC V7C 5S7, Canada",49.169758,-123.16759,"Sandwiches, Smokehouse"
3r9FUpajfS7Or9CVzUmFlg,St Lawrence Restaurant,"269 Powell Street, Vancouver, BC V6A 1G3, Canada",49.2832584031253,-123.097993419888,French
OHMv-_cc0kmRCWV3kM44Bg,Kosoo,"1128 Robson Street, Vancouver, BC V6E 1B2, Canada",49.28494,-123.12592,"Korean, Barbeque, Soul Food"
eYuaH9z_bCDt5Kx7jGEacQ,The Dolar Shop - Station Square,"6078 Silver Dr, Burnaby, BC V5H 0H5, Canada",49.2277884925998,-123.00316795158996,"Hot Pot, Chinese, Asian Fusion"
NxhG1ChJna375NFacaUsUw,Sector 7 Kitchen + Bar,"10-9371  5 Road, Richmond, BC V7A 4E1, Canada",49.144842,-123.092344,"Beer Bar, Burgers, Chicken Wings"
rbgjXYiutRMsKCOrzkm5aw,Oyster Express,"296 Keefer Street, Vancouver, BC V6A 1X5, Canada",49.2792784082144,-123.097397130932,"Seafood, Bars, Soul Food"
8IUK_KGorRQ4yfa5h6ANcQ,Western Lake Chinese Seafood Restaurant,"4989 Victoria Drive, Vancouver, BC V5P 3T7, Canada",49.23933628972885,-123.0655687885182,"Dim Sum, Seafood, Cantonese"
l184Y1d3oAa5_Al4YIaRjQ,Anh and Chi,"3388 Main Street, Vancouver, BC V5V 3M7, Canada",49.2550314422938,-123.100882202153,"Vietnamese, Cocktail Bars"
WCyc2DPB3WnF1amV12aPIQ,STEM Japanese Eatery,"5205 Rumble Street, Burnaby, BC V5J 2B7, Canada",49.21497276456137,-122.98816101534425,Japanese
piwi7Au_17aUKuC2S97Nkg,Zarak By Afghan Kitchen,"2102 Main Street, Vancouver, BC V5T 0K1, Canada",49.266224,-123.1006089,"Afghan, Cocktail Bars, Breakfast & Brunch"
KfXBoMeZBC22VHL4GRt-8g,John 3:16 Malaysian Delights,"6832 & 6838 No.3 Road, Richmond, BC V6Y 2C4, Canada",49.1641317,-123.1362195,Malaysian
BUFt4lRzuOWUmqHBtv7AmQ,Zefferelli's,"1136 Robson Street, Vancouver, BC V6E 1B2, Canada",49.28504,-123.1261,"Italian, Bars"
c-WPBWkQ82pcO7eTkj-5MA,Tenen,"7569 Royal Oak Avenue, Burnaby, BC V5J 4J8, Canada",49.21549,-122.98895,"Barbeque, Modern European, Soup"
uZedpLRFgKSnuCKsX0kh1g,Lamajoun,"128-11782 River Road, Richmond, BC V6X 1Z7, Canada",49.1967128,-123.0952077,"Mediterranean, Vegan, Soup"
RckRmOcX7OtMUDC40Cz3lg,Hello Nori ,"1165 Robson Street, Vancouver, BC V6E 1B5, Canada",49.28559747478766,-123.1261163,"Japanese, Sushi Bars, Coffee & Tea"
DkKH_q0_vdWSWZwFhPFLZw,Tavola,"1829 Robson Street, Vancouver, BC V6G 3E4, Canada",49.2918164,-123.1357186,Italian
MqRoBCv-M-_WQqUPJJqFDw,So Hyang Korean Cuisine,"6345 Fraser Street, Vancouver, BC V5W 3A3, Canada",49.227057510686585,-123.0909235,Korean
lQlJvXi19RJs_q4xR6gcNg,Excellent Tofu & Snacks,"4231 Hazelbridge Way, Suite 160, Richmond, BC V6X 3L7, Canada",49.1826466,-123.1336595,"Desserts, Chinese"
gNCSbTm3unsdztncbgSv5A,Osteria Savio Volpe,"615 Kingsway, Vancouver, BC V5T 3K5, Canada",49.2574913,-123.0909344,Italian
LtUXvhMPyiz93Ls99BvDOA,Yin Ji Chang Fen,"170-8500 Alexandra Road, Richmond, BC V6X 3L4, Canada",49.17786599999999,-123.1294224,"Cantonese, Noodles"
kK4imiJdmPKJBgQXoQ_VTg,Teahouse in Stanley Park,"7501 Stanley Park Drive, Vancouver, BC V6G 1Z4, Canada",49.3012529987012,-123.157079257071,Seafood
XFVGGq47_5mUM9QQsRO8nA,Guu Original Thurlow,"838 Thurlow Street, Vancouver, BC V6E 1W2, Canada",49.2839786648396,-123.125567978574,"Japanese, Tapas Bars"
TQj4HSCmm5GnriKMiSpqpQ,Raisu,"2340 W 4th Avenue, Vancouver, BC V6K 1P1, Canada",49.2679990419609,-123.158381134272,"Japanese, Sushi Bars"
hjou4Tcftqgd2peMPECmeA,YUAN’S HOT POT,"4151 Hazelbridge Way, Richmond, BC V6X 4J7, Canada",49.1831220296222,-123.133927292474,"Hot Pot, Chinese, Asian Fusion"
XAH2HpuUUtu7CUO26pbs4w,Saku,"548 W Broadway, Vancouver, BC V5Z 1E9, Canada",49.2631006,-123.11667523250104,"Japanese, Noodles, Seafood"
VHvlre6m3-oUlixGLlOnRA,Richmond Night Market,"8351 River Road, Richmond, BC V6X 1Y4, Canada",49.19241,-123.13317,"Chinese, Food Stands, Festivals"
l2f2PU8Rtr5TPtzwaGQ_sA,Seasons In the Park,"Queen Elizabeth Park, Cambie Street W 33rd Avenue, Vancouver, BC V5Y 2M5, Canada",49.2416705486198,-123.112535476685,Seafood
I3WL4SUztqMKa3VlR7mAIg,Ganbei Izakaya Japanese Restaurant,"133-4800 No 3 Road, Richmond, BC V6X 3A6, Canada",49.179037334275435,-123.13536451346614,"Japanese, Sushi Bars"
Znye-DqtLoBzeuM4A5n3jg,Takara Sushi,"3726 Canada Way, Burnaby, BC V5G 1G4, Canada",49.2545851,-123.0220016,"Sushi Bars, Japanese"
oLoO76fZnnci-TOj9xWF1A,España Restaurant,"1118 Denman Street, Vancouver, BC V6G 2M8, Canada",49.2880552,-123.1404114,Spanish
GUWoTn1SUNv9kCuSsXPXCw,Memory Corner,"1110-4651 Garden City Rd, Richmond, BC V6X 4A9, Canada",49.179073,-123.124947,Taiwanese
FThw9d9asDhGfYSt0N4UoA,Tour De Feast,"319 Mountain Highway, North Vancouver, BC V7J 2K7, Canada",49.3074,-123.03223,"French, Breakfast & Brunch"
ljnjap6GNVMvS1DNzgDOYA,Caveman Cafe,"88 W Pender Street, Unit 1005, Vancouver, BC V6B 6N8, Canada",49.280802324947445,-123.10703500282293,"Organic Stores, Salad, Cafes"
MimKL6DZXjW6pAB2USBADg,Score on Davie,"1262 Davie Street, Vancouver, BC V6J 5L1, Canada",49.2823221457395,-123.134614739512,"Sports Bars, Breakfast & Brunch, American"
O3_ythnBjOV4MYnRNRKMvQ,Romer's,"8683 Kerr Street, Vancouver, BC V5S 4V7, Canada",49.2059813,-123.0424806,"Burgers, Salad, Seafood"
JgSGpSMHbGecAXs_o1rE_g,Dinesty Dumpling House,"1719 Robson Street, Vancouver, BC V6G 1C8, Canada",49.2908176,-123.1343912,"Chinese, Bubble Tea, Dumplings"
icnhQBqyrQ2joCRtV_OORw,Nero Waffles,"1703 Robson Street, Vancouver, BC V6G 1C9, Canada",49.2907208,-123.1339952,"Desserts, Breakfast & Brunch, Waffles"
AEyYLMPjnFWybOmD81pufg,The Mexican Antojitos Y Cantina,"1049 Granville Street, Vancouver, BC V6Z 1L4, Canada",49.2787726,-123.1240268,Mexican
K1nbiOrySlw_-XG-3NmErQ,Manoush'eh,"620 Davie Street, Vancouver, BC V6B 2G5, Canada",49.27667072314417,-123.12570086148996,"Lebanese, Mediterranean, Halal"
KqJa1YxZM0PT4iHqhJJjFA,Fisherman's Terrace Seafood Restaurant,"4151 Hazelbridge Way, Suite 3580, Richmond, BC V6X 4J7, Canada",49.18408,-123.13404,"Seafood, Dim Sum, Cantonese"
8imPeaQUj5Cbon_4kcrhQg,Cuchillo,"261 Powell Street, Vancouver, BC V6A 2Z1, Canada",49.283262611469,-123.098110155039,"Latin American, Bars"
kDZTaeUaf78Jd25ktX8a8g,Number E Food,"1308 Burrard Street, Vancouver, BC V6Z 2B7, Canada",49.277569151917,-123.131018212403,"Sandwiches, Coffee & Tea"
daocqDkXz0zubenI8ilYlw,Wang's Shanghai Cuisine,"3328 Kingsway, Suite 110, Vancouver, BC V5T 5L1, Canada",49.232843,-123.034814,"Noodles, Dumplings, Dim Sum"
2L1qgW7SlsvmEs5wzAaM0w,Riley's Fish & Steak,"200 Burrard Street, Vancouver, BC V6C 3L6, Canada",49.287641996861865,-123.1151089,"Seafood, Diners, Steakhouses"
zn23grdBC9wQ9ZXjyzJEEw,ChoCho Hot Pot Burnaby,"4361 Kingsway, Suite 4A, Burnaby, BC V5H 1Z9, Canada",49.231234,-123.006943,"Hot Pot, Chinese"
1KSuwOYn_bmhAEAgUriYYA,Kissa Tanto,"263 E Pender Street, Vancouver, BC V6A 1T8, Canada",49.2806222,-123.09811350061167,"Japanese, Italian"
tWYNyFXHkLA4N0UfIQHCnA,Bun Cha Ca Hoang Yen,"5155 Victoria Drive, Vancouver, BC V5P 3V1, Canada",49.237861,-123.065794,"Vietnamese, Noodles"
w3HSOOqJednBOYbO3fajvQ,Les Faux Bourgeois,"663 E 15th Avenue, Vancouver, BC V5T 2R6, Canada",49.2572813531481,-123.089767330802,"French, Cafes"
hDQmMvYXpLVXwhXSu9HsOQ,Nightingale,"1017 West Hastings Street, Vancouver, BC V6E 0C4, Canada",49.2874110331456,-123.117770967577,"Live/Raw Food, Canadian (New), Pizza"
vdQbDQHPq_nA30ngxEgMJg,Tutto,"901 Homer St, Vancouver, BC V6B 2W6, Canada",49.2784091,-123.1187139,"Italian, Bars"
I5NCVB8uYiYpXg6nfHdnRw,Tang Vietnamese Restaurant & Bar,"8611 Alexandra Rd, Unit 170, Richmond, BC V6X 1C3, Canada",49.17853,-123.12748,"Vietnamese, Cocktail Bars"
mSnJ3u1Cu5YRuw1Pp6mXXA,Chef's Playground Eatery,"170-12420 No.1 Road, Richmond, BC V7E 6N2, Canada",49.12477,-123.18087,Comfort Food
RdFbbpFq3ly-2R_CaLXXsg,Continental Seafood Restaurant,"11700 Cambie Road, Suite 150, Richmond, BC V6X 1L5, Canada",49.18391,-123.09426,"Seafood, Dim Sum, Cantonese"
sDmD24fm6R7GVSf4Jn5vdg,Alouette Bistro,"567 Hornby Street, Vancouver, BC V6C 2E8, Canada",49.2853,-123.11829,"French, Seafood, Cocktail Bars"
yK7KreB1_jUPc3uTAH110A,Uno Beef Noodle,"135 - 2811 Number 3 Road, Richmond, BC V6X 2B2, Canada",49.193218109957115,-123.12980856746434,"Noodles, Bubble Tea, Dim Sum"
o5YLdmUogknjtDzUBv5Smw,Tom Sushi,"1175 Davie St, Vancouver, BC V6E 1N2, Canada",49.2815608,-123.1327476,"Sushi Bars, Japanese"
Laiv2EnIwZFMF9Jy-R0PAA,Absinthe Bistro,"952 Commercial Drive, Vancouver, BC V5L 3W7, Canada",49.27607,-123.0692457,"French, Bistros, Desserts"
G42wPpAtYNSoX5QxEt6pVg,Di Beppe,"8 W Cordova Street, Vancouver, BC V6B 1C9, Canada",49.28237705581659,-123.10450043738042,Italian
GQK8trvjFDBuETAchTMVIA,Nemesis Coffee,"302 W Hastings Street, Vancouver, BC V6B 2N4, Canada",49.28281595985871,-123.11027107703038,Cafes
gV9lrbWr1CE1Jl0E58UO2g,Minami,"1118 Mainland Street, Vancouver, BC V6B 2T9, Canada",49.2752733,-123.1207029,"Japanese, Sushi Bars"
ecN9xzc80xkm9XOFNCUDmw,Tokyo In April,"526 Abbott St, Vancouver, BC V6B 2L1, Canada",49.2806813,-123.1073936,Japanese
EC4hb3ie0NBoyw7zgrsnmA,Henry's Kitchen Pasta & Grill,"2410 Saint Johns Street, Port Moody, BC V3H 2B1, Canada",49.27694,-122.85777,"Italian, French"
PGncmTdbqJrmb5BI7atc3w,Rice Holic,"8700 McKim Way, Suite 2178, Richmond, BC V6X 2H8, Canada",49.18324601236517,-123.12660701572896,"Taiwanese, Food Court"
7Tne8P5zyMpJKfpjQg2P-g,L'Abattoir,"217 Carrall Street, Vancouver, BC V6B 2J1, Canada",49.2831869855333,-123.104450140894,"French, Canadian (New), Breakfast & Brunch"
xotJvqXcjsDSnbL993L5rg,Gringo,"27 Blood Alley Square, Vancouver, BC V6B 0C4, Canada",49.2831553214634,-123.105335897068,"Mexican, Bars, Tex-Mex"
U3L-K3CQsQOSETtmTCxiBQ,Noah's Cafe,"1096 Denman Street, Vancouver, BC V6G 2M8, Canada",49.28827635407216,-123.1400279,"Japanese, Tapas Bars, Cocktail Bars"
L4jCuG3S-6kY0FVAyjiLNQ,Nero Waffles,"1002 Seymour Street, Vancouver, BC V6B 3M6, Canada",49.27834403099929,-123.122044653573,"Waffles, Coffee & Tea"
fkyvSfVYXHlG6nHRTBhsdA,JOEY Shipyards,"125 Victory Ship Way Unit #110, North Vancouver, Shipyards, Vancouver, BC V7L 0G5, Canada",49.309966,-123.0786044,"Canadian (New), Lounges, Steakhouses"
aB_wfxQvgso67lzgrrfTuA,Cactus Club Cafe,"588 Burrard Street, Vancouver, BC V6C 1A8, Canada",49.28554081466174,-123.11881637137162,"Canadian (New), Cocktail Bars"
6iOAgzJ0DRZNSKA3FSrrOg,La Taqueria Pinche Taco Shop,"2450 Yukon Street, Vancouver, BC V5Z 3V6, Canada",49.263617,-123.112593,Mexican
nzAEGOFDbTHwJSuZijS4AA,Tsujiri Richmond,"1535 - 4777 Mcclelland Road, Richmond, BC V6X 0N1, Canada",49.17769,-123.12159,"Japanese, Desserts, Tea Rooms"
rFpTo5-e7ML6rCVs64PxtA,Kozak Ukrainian Restaurant,"1 West Cordova Street, Vancouver, BC V6B 1C8, Canada",49.282654874794794,-123.1046559827506,Ukrainian
AbvEpKZyPBRdXsHvMZz0sw,Kinemi's Kitchen,"7751 Champlain Crescent, Vancouver, BC V5S 4J6, Canada",49.2142196,-123.0301573,"Pizza, Italian"
g5o9JFDmeYm4xR1h6myDIg,Okini Restaurant & Bar,"1864 W 57th Avenue, Vancouver, BC V6P 1T7, Canada",49.21921,-123.1494,"Japanese, Wine Bars, Cocktail Bars"
XXEhaKrcgD4YcK9Q9rq8ww,Afghan Chopan Restaurant,"1600- 8260 Westminster Highway, Richmond, BC V6X 3Y2, Canada",49.16996743188082,-123.13302061349331,Afghan
xYDUAD4JGLVnQUB2i8njBA,Rodney's Oyster House,"1228 Hamilton Street, Vancouver, BC V6B 6L2, Canada",49.274326,-123.123131,Seafood
SIdbZcE5gp63UjRN8tLr0g,The Red Accordion,"1616 Alberni Street, Vancouver, BC V6G 1A6, Canada",49.29025,-123.131768,"Cocktail Bars, Tapas/Small Plates"
uAROEz8D29elXoNxjnPrkQ,Twisted Fork,"213 Carral Street, Vancouver, BC V6B 2J2, Canada",49.283194,-123.104445,"French, Breakfast & Brunch"
5zaHXBtIQQMw96vveToEZQ,Mr Bro Korean Bistro & Izakaya,"8580 Alexandra Road, Unit 2000, Richmond, BC V6X 4B3, Canada",49.17817691704061,-123.12766199013662,Korean
YKwslU27SRfzgpAPV6UxUg,Trafiq Cafe & Bakery,"4216 Main Street, Vancouver, BC V5V 3R1, Canada",49.2474862,-123.1011218,"Cafes, Bakeries, Coffee & Tea"
jbey2djN2H45SAaKZnIxjQ,Four Winds Brewing,"4-7355 72nd Street, Delta, BC V4G 1L5, Canada",49.13632,-123.026946,"Mexican, Tapas/Small Plates, Brewpubs"
uuXiaNDeUySh9NSbSRuEYQ,Ancora Waterfront Dining and Patio,"1600 Howe Street, Vancouver, BC V6Z 2L9, Canada",49.273853456158875,-123.13257765112428,"Seafood, Japanese, Peruvian"
i0xnuLimVcuSoBqO265obA,Hokkaido Ramen Santouka,"1690 Robson Street, Vancouver, BC V6G 1C7, Canada",49.290236,-123.133811,"Ramen, Noodles"
wTVzfhLOYUyd6wY9LJWC2w,Khob Khun Thai Cuisine,"1143 Austin Avenue, Coquitlam, BC V3K 3P4, Canada",49.249218,-122.858859,Thai
KtVkoMeLF0b7A4ThWojjEA,Chef Tony,"4600 No 3 Road, Suite 101, Richmond, BC V6X 2C2, Canada",49.1805103,-123.1363684,"Dim Sum, Cantonese"
E1W37ovBz6IVo5SEHVfD0g,Peaked Pies,"975 Denman Street, Vancouver, BC V6G, Canada",49.2896489,-123.1384797,"Australian, Bakeries, Fast Food"
usO5eH44mmub9p_pH95OkQ,Delhi 6 Indian Bistro,"1766 W 7th Avenue, Vancouver, BC V6J 4Z9, Canada",49.2653386,-123.1449329,Indian
JxcMOw_SWTZ9FWyDOCziLQ,Maruhachi Ra-men,"2780 No 3 Road, Richmond, BC V6X 2B3, Canada",49.1931432,-123.12912327116392,"Ramen, Noodles"
IKWsLkiJLA4YwiIoxnaZaQ,Nuba in Gastown,"207 W Hastings Street, Vancouver, BC V6B 1K6, Canada",49.2827625062516,-123.109646101134,"Mediterranean, Lebanese"
R0Oo9LRcrHQmK_a-iFTiMw,Horin Tonkotsu Ramen ,"1226 Robson Street, Vancouver, BC V6E 1C1, Canada",49.28617,-123.12749,Ramen
ba7QMdfLHj2ayzssvKJ6-A,Joojak Restaurant,"3337 Kingsway, Vancouver, BC V5R 5K6, Canada",49.2334900680365,-123.034767160936,"Chinese, Dumplings"
lQuQy5a4wk0WL7WpP2hwyQ,Maxine's Cafe & Bar,"1325 Burrard Street, Vancouver, BC V6Z 2B7, Canada",49.27807,-123.13131,"Bars, Breakfast & Brunch, Cafes"
yGN49BvYy_Nltbr_Ra_W3A,Win Win Chick-N,"12160 First Avenue, Richmond, BC V7E 3M2, Canada",49.1247087,-123.1824099,"Chicken Wings, Chicken Shop, Sandwiches"
cp6Bq3-VcearblmgKK1rBQ,Dosa Corner,"6181 Fraser Street, Vancouver, BC V5W 2Z9, Canada",49.228560136988925,-123.09088376502966,Indian
S-wgeQmV5v4g4wti05zUlQ,Tendon Kohaku,"840 Howe Street, Suite 190, Vancouver, BC V6Z 2S9, Canada",49.28107123873706,-123.12179426645872,Japanese
k7-oClu97qColM6BcCaQMw,Nook,"781 Denman Street, Vancouver, BC V6G, Canada",49.2917554,-123.1352974,"Italian, Pizza"
K1943yeGQELTUeiH6bDa2g,Bao Bei Chinese Brasserie,"163 Keefer Street, Vancouver, BC V6A 1X3, Canada",49.2796095312486,-123.100574596039,Chinese
sh3FzN6SDKWTSPj1nwvi7Q,Cafe de l'Orangerie,"1320 W 73rd Avenue, Vancouver, BC V6P 4R3, Canada",49.2042129,-123.135365,"Japanese, Desserts"
0oGCF9xsvKe1vS6Sm3o3VQ,Kokoro Tokyo Mazesoba,"551 Seymour Street, Vancouver, BC V6B 3H6, Canada",49.2833927,-123.115078,Japanese
bCJJDgKVudbaFL5-2gMm3Q,Sushi Hil,"3330 Main Street, Vancouver, BC V5V 3M7, Canada",49.2554661,-123.1011451,"Japanese, Sushi Bars"
kOOX1tsU0nbg0MbLXTLL6A,MeeT on Main,"4288 Main Street, Vancouver, BC V5V 3P9, Canada",49.2467145032391,-123.100830778711,"Comfort Food, Burgers"
WAoOGyNniFmpksKjPysagQ,Fat Mao Noodles,"983 Helmcken Street, Vancouver, BC V6Z 2S5, Canada",49.27982129999999,-123.1267997,"Noodles, Thai"
As07d8IrOEsH-aJg-9EsFw,Goodbowl,"1630 4791 Mcclelland Road, Richmond, BC V6X 0M5, Canada",49.1778813548145,-123.122230321169,"Mongolian, Juice Bars & Smoothies, Noodles"
1EwMLL5N5KtdBHRKTvyxow,Sweet Memory,"8080 Leslie Road, Richmond, BC V6X 1E4, Canada",49.1796164846578,-123.134789257818,"Desserts, Taiwanese, Chinese"
mQMDfPd6RpbThhAI3-7KOA,Earls Kitchen + Bar,"6070 Silver Dr, Burnaby, BC V5H 0H5, Canada",49.22796247281024,-123.0027748,"Canadian (New), Cocktail Bars, Seafood"
9C9VeNGPtjORdz1lBj1Bjw,CHJ Bistro,"240 12240 2nd Avenue, Richmond, BC V7E 3L8, Canada",49.12444302250127,-123.1840632433298,Taiwanese
D1gkF04qqIz0nrrVmCF6ug,Ramen Danbo,"1833 W 4th Avenue, Vancouver, BC V6J 1M4, Canada",49.26828,-123.146431,"Ramen, Noodles"
as2xQt48ltKKDUQbMCBrMw,Shizen Ya,"965 Hornby Street, Vancouver, BC V6Z 1V3, Canada",49.2808844,-123.1246278,"Japanese, Sushi Bars, Noodles"
n4y_jKEQLIQeDjHge9uJvw,Pourhouse Restaurant,"162 Water Street, Vancouver, BC V6B 1B2, Canada",49.2841134475502,-123.10842879595,"Cocktail Bars, Comfort Food, Burgers"
xWooPFPiXv8PZ2F6IBKjnA,Wasuta Pasta,"202-7080 River Road, Richmond, BC V6X 1X5, Canada",49.17738842937801,-123.14447488635778,"Japanese, Italian, Desserts"
FjJsWTKHa9fSEXX55iH2pg,Pho 37,"1008-8300 Capstan Way, Richmond, BC V6X 4B7, Canada",49.18745763639007,-123.12396731089822,Vietnamese
0BvstbA_zaIfe6fwtMm-Ow,CinCin Ristorante + Bar,"1154 Robson Street, Vancouver, BC V6E 1B2, Canada",49.28516,-123.1263,"Italian, Bars"
RqtEy936GDBb0ddesDqKQg,Breakfast Table,"3014 Granville Street, Vancouver, BC V6H 1H6, Canada",49.25855,-123.13856,Breakfast & Brunch
oB4GzgURuu6HGBEDECHWRw,Cactus Club Cafe,"6090 Silver Drive, Burnaby, BC V5H 4L7, Canada",49.22775581945971,-123.00329214418927,"Cocktail Bars, Canadian (New)"
rRb2CvNCNWyPSQdeVme9-Q,Takenaka,"1370 East Georgia Street, Vancouver, BC V5L 2A8, Canada",49.2783093,-123.0755801,Japanese
BDHZ7pZrCC5x0cumAtcvqA,Milltown Bar & Grill,"9191 Bentley Street, Suite 101, Vancouver, BC V6C 2X8, Canada",49.20252886744793,-123.14447800395358,"Canadian (New), Pubs, Breakfast & Brunch"
iafE2JEpZ_ipd89tlk1MTA,Tableau Bar Bistro,"1181 Melville Street, Vancouver, BC V6E 0A3, Canada",49.287494,-123.1235689,"Bars, Bistros"
wsp2hTwhasGwSNe72qUB3w,Jam Cafe,"2153 W 4th Avenue, Vancouver, BC V6K 1N7, Canada",49.2682705,-123.1539827,Breakfast & Brunch
V-kQkPZzlOXIqk3rSqkikg,Ask For Luigi,"305 Alexander Street, Vancouver, BC V6A 1C4, Canada",49.2844485,-123.0976786,Italian
e6dufpt9JwfZh7bDvduJ7w,Hao's Lamb Restaurant,"4260 No 3 Road Richmond, Richmond, BC V6X 3V7, Canada",49.18270747319993,-123.13584083403973,Chinese
pHLp3uNBUvNbADbh7B3gBw,Mount Everest Kitchen & Grill,"538 Seymour Street, Vancouver, BC V6B 3J5, Canada",49.28343057225757,-123.1142148824853,"Indian, Himalayan/Nepalese, Noodles"
t1Q-DxnxjDy-u92bgGoYZQ,The Keg Steakhouse + Bar,"4510 Still Creek Ave, Burnaby, BC V5C 0B5, Canada",49.2596278,-123.0019108,"Steakhouses, Bars, Seafood"
09pqJ_9HmzZqZdbmWaZaEg,Daan Korean Cuisine,"9040 Blundell Road, Richmond, BC V6Y 1K3, Canada",49.1553651,-123.124776,Korean
ieuUpA1eswgXDAfxp8B42A,La Mezcaleria,"1622 Commercial Drive, Vancouver, BC V5L 3Y4, Canada",49.2702237,-123.0694136,Mexican
LCQNNtLbY7Sa5zQI4nZPfg,Hy's Steakhouse & Cocktail Bar,"637 Hornby Street, Vancouver, BC V6C 2G3, Canada",49.28468,-123.11927,"Steakhouses, Cocktail Bars, Seafood"
pdQ4pZ7x9p9lUPY4JgItMw,Zakkushi on Denman,"823 Denman Street, Vancouver, BC V6G 2L7, Canada",49.291208,-123.136248,"Japanese, Tapas/Small Plates, Barbeque"
70D_rxm388HaD2qMTB59xw,Hawksworth Restaurant,"801 W Georgia Street, Vancouver, BC V6C 1P7, Canada",49.2833971,-123.1191704,Canadian (New)
C3u20h3WCXp5Ebkx70unQA,Atlas Steak + Fish,"4331 Dominion Street, Delta Hotels Burnaby Conference Centre, Burnaby, BC V5G 1C7, Canada",49.256747,-123.006931,"Steakhouses, Seafood, Bars"
JyLWxozP9PXSCa2Lo8Ubkw,Katsuya,"555 Clarke Road, Suite 8, Coquitlam, BC V3J 3X4, Canada",49.26175,-122.89038,Japanese
LqzeN5HH6K1KXI6PsKdN4g,Chi Vegan,"1935 W 4th Avenue, Vancouver, BC V6J 1M7, Canada",49.2681947,-123.1487738,Vietnamese
l3ed9grAd1t_S53jJCKf4w,Do Chay,"1392 Kingsway, Vancouver, BC V5V 3E4, Canada",49.25006,-123.0765,"Vietnamese, Vegan, Vegetarian"
zQCE8SFTuasTCqmH1NxeYQ,Pho 37,"3120-11666 Steveston Highway, Richmond, BC V7A 5J3, Canada",49.1321,-123.094878,"Vietnamese, Noodles"
r2XDur8APcdfVKSsuR_Hig,Ashiana Tandoori Restaurant,"1440 Kingsway Street, Vancouver, BC V5N 2R5, Canada",49.2494722,-123.0749207,Indian
z-1HXkudDPE4bY1TbCwE8Q,La Belle Patate,"1215 Davie Street, Vancouver, BC V6E 1N4, Canada",49.2820547306569,-123.133442922354,"Poutineries, Beer Bar, Sandwiches"
t8U7xn26wG0PEcXvkKNdFA,Crackle Creme,"245 Union Street, Vancouver, BC V6A 2B2, Canada",49.27776,-123.0981399,"Desserts, Coffee & Tea, Cafes"
nwwFLvSaUHEagSi1MSjqRA,Tap & Barrel - Convention Centre,"1055 Canada Place, Suite 76, Vancouver, BC V6C 0C3, Canada",49.289845529586,-123.116857235515,Comfort Food
rVuC98hyTNLaxtr5Y8rH9A,Elisa,"1109 Hamilton Street, Vancouver, BC V6B 5P6, Canada",49.27597599917006,-123.12142339325408,"Steakhouses, Wine Bars, Salad"
_8xxaR-LEaEOiiml_U0OLQ,Takeya Sushi,"8671 No 1 Road, Suite 17, Richmond, BC V7C 1V1, Canada",49.1493113949576,-123.182500943964,"Japanese, Sushi Bars"
O4e7y6zOqBGZX4sIWJk0Gg,New Mandarin Seafood Restaurant,"4650 Gladstone St, Vancouver, BC V5N 5A2, Canada",49.2430789410403,-123.062085096174,"Dim Sum, Seafood"
BqOSfSmwWDZzjYzIrBhyNw,Catch 122,"128 Carrie Cates Court, North Vancouver, BC V7M 0G7, Canada",49.31064542565645,-123.08054304109967,"Breakfast & Brunch, Canadian (New)"
KGj2fuxpW6sgMOiUQk2UsA,Na-Re Korean Kitchen,"7413 Edmonds St, Burnaby, BC V3N 1B1, Canada",49.2203084,-122.9484012180843,Korean
A8ab1QjPyC10m9NAKQkliA,Fritz European Fry House,"718 Davie Street, Vancouver, BC V6Z 1B6, Canada",49.2772045,-123.1265253,"Fast Food, Poutineries, Modern European"
rKvYdFOZCzQV-zr7US7NzA,Missing Chopsticks,"13880 Wireless Way, Unit 130, Richmond, BC V6V 0A3, Canada",49.171685842537904,-123.0728836673412,"French, Asian Fusion"
nFPIv5ybjhxhpGg7eERa1g,The Old Spaghetti Factory,"14200 Entertainment Blvd, Richmond, BC V6W 1K3, Canada",49.1337704,-123.0660551,Italian
NEtaScmF4JcWabnjAOQALw,Mama's Dumpling & Coffee,"103-11782 Hammersmith Way, Richmond, BC V7A 5E2, Canada",49.1295537,-123.100292,"Coffee & Tea, Chinese, Dumplings"
aGEaKx1jbVyQxeMumKYMHQ,Kisamos Greek Taverna,"3420 Moncton Street, Richmond, BC V7E 3A2, Canada",49.12509627500716,-123.18535791349962,Greek
BsaN_ft3Rh75aEGIcJTtIA,Via Tevere Pizzeria,"1190 Victoria Drive, Vancouver, BC V5L 4G5, Canada",49.27387530438791,-123.06553445802784,"Italian, Pizza, Desserts"
ztP4E-dCMEOZRT9XYLDNzw,Maenam,"1938 W 4th Avenue, Vancouver, BC V6J 1M5, Canada",49.26787,-123.1488979,Thai
pRSQYWdlzbeAWUbBuo4lhg,Yuan's Garden Restaurant 隨園,"101 - 8077 Alexandra Road, Richmond, BC V6X 3A6, Canada",49.178968,-123.134826,"Chinese, Seafood, Noodles"
VlV2pcklu5HY32F5MhIgIg,Le Petit Belge,"340 Robson Street, Vancouver, BC V6B 2B2, Canada",49.2789656680049,-123.116212114692,"Bakeries, Breakfast & Brunch, Belgian"
9Waotz-_G9woVPWZTmZcwA,Lunch Lady,"1046 Commercial Drive, Vancouver, BC V5L 3W9, Canada",49.27497,-123.06915,Vietnamese
FBRXaVOSt2Vst3oz1S3Ntw,Kook Korean BBQ,"2800 1st Avenue E, Suite 211 A, Vancouver, BC V5M 4N9, Canada",49.26894,-123.04565,"Korean, Barbeque"
j7VmHg9M-eWZuDw-p4AIaA,Seto Japanese Restaurant,"8460 Alexandra Road, Suite 155, Richmond, BC V6X 3L4, Canada",49.1781848,-123.129567,"Japanese, Sushi Bars"
41bzxmj4Da4l5WB-eS5C2A,Old Surrey Restaurant,"13483 72 Avenue, Surrey, BC V3W 2N7, Canada",49.13376877137055,-122.84896724397012,French
y1BLVJUWINOSMLeDaXqXBQ,Sun Sui Wah Seafood Restaurant,"4940 No 3 Road, Suite 102, Richmond, BC V5V 3N9, Canada",49.17807135336199,-123.13554115581708,"Seafood, Dim Sum, Cantonese"
w4akEdaAoTT-bIgStOqeng,Burgoo Bistro,"1100 Burrard Street, Vancouver, BC V6Z 1Y9, Canada",49.27968,-123.12763,"Comfort Food, Bistros"
t1RhVFdcOCA5Zrbzen0QXA,Steveston Seafood House,"3951 Moncton Street, Richmond, BC V7E 3A7, Canada",49.12541,-123.18167,Seafood
VNxlp4ktHwwFBcHOOa0GLA,The Locus,"4121 Main Street, Vancouver, BC V5V 3P6, Canada",49.2485,-123.10147,"Lounges, Canadian (New)"
ioS3wf6oIvVQlrTfOM56EQ,Sooda Korean BBQ,"4567 Lougheed Highway, Burnaby, BC V5C 3Z6, Canada",49.2680924,-123.0003773,"Korean, Barbeque"
suqB3S2tjRqg_4UR7Ji3cA,Browns Socialhouse QE Theatre,"675 Cambie St, Vancouver, BC V6B 2P1, Canada",49.279919,-123.112788,"Burgers, Gastropubs"
8-l4x9EYK6JAbMycfrDU3Q,JINYA Ramen Bar - Vancouver Downtown,"541 Robson St., Vancouver, BC V6B 2B7, Canada",49.28031515071204,-123.1179057,Ramen
1vN70hL6JzxO5-l3C-y2Tw,Kozak Ukranian Eatery,"444 Sixth Street, New Westminster, BC V3L 3B3, Canada",49.2114757572234,-122.918422905028,"Bakeries, Ukrainian"
DU-2FkgvtChVDNOevPeteg,Flying Beaver Bar,"4760 Inglis Drive, Richmond, BC V7B 1W4, Canada",49.1772983187968,-123.168243032169,"Pubs, American"
cA_W0XQcTsYZUwOXlGj48A,Sopra Sotto,"1510 Commercial Drive, Vancouver, BC V5L 2Y7, Canada",49.2711051,-123.0694651,"Pizza, Italian"
SKOea7lDiKe-VVjWZRRhAA,Saku,"4771 Mcclelland Road, Suite 1415, Richmond, BC V6X 0M5, Canada",49.17796089351495,-123.12290053186616,Japanese
nPpD5ZbLFb6OF204TW1lSA,Mila,"185 Keefer St, Vancouver, BC V6A 1X3, Canada",49.27970565629694,-123.10030422654545,"Vegan, Sushi Bars"
bb2yORNNEc22UH17ei7ntw,Virtuous Pie,"583 Main Street, Vancouver, BC V6A 2V1, Canada",49.279716,-123.0999343,"Pizza, Vegan, Ice Cream & Frozen Yogurt"
2Tp-PQvILBZLKVDzvMIlvQ,Rajio Japanese Public House,"3763 W 10th Avenue, Vancouver, BC V6R 2G5, Canada",49.2636549,-123.1870301,"Japanese, Tapas/Small Plates"
D3KdqK5gNLEpdD3t9-yKlg,Sun Bo Kong Vegetarian Restaurant,"1363 Kingsway, Vancouver, BC V5V 3E3, Canada",49.25076313662938,-123.0768886901428,"Vegetarian, Dim Sum, Cantonese"
agMh6QkfpjAxmu0O5fnNPQ,Linh Cafe,"1428 Granville Street, Vancouver, BC V6Z 1N2, Canada",49.2746716,-123.12989802,"Vietnamese, French"
-_9-wQvZHckgHHQm7itlbQ,Kun's Omakase Bar,"150 - 3500 Moncton Street, Richmond, BC V7E 3A2, Canada",49.12496,-123.18478,"Japanese, Sushi Bars"
OCgVYVtbOrTgR5pORFUVPw,Chewie's Chicken & Biscuits,"2822 West 4th Avenue, Vancouver, BC V6K 1R2, Canada",49.26809,-123.1688,"Sandwiches, Chicken Shop, Breakfast & Brunch"
BxFzEb1gxpIZ4G0tfG-b4w,The Keg Steakhouse + Bar,"11151 Number 5 Road, Richmond, BC V7A 4E8, Canada",49.131389,-123.09284,"Steakhouses, Bars, Seafood"
9KgB4mKZnW7GRU3zjPcxvw,Fassil Ethiopian Restaurant,"736 Broadway E, Vancouver, BC V5T 1X9, Canada",49.262316686122,-123.08833077466,Ethiopian
LRdWbqIKhwkGshhVKOaokQ,My Greek Taverna,"946 Brunette Avenue, Coquitlam, BC V3K 1C9, Canada",49.23707629280225,-122.86929574290268,"Greek, Mediterranean"
KDpEDnHqRXTeBhNTmvBFiQ,Burgoo Bistros,"3096 Main Street, Vancouver, BC V5T 3G5, Canada",49.25765498958033,-123.100815,"Comfort Food, Bistros"
QRxgH7uN--z4Uh_mdFDbaQ,Fortune Terrace Chinese Cuisine,"130-6200 River Road, Richmond, BC V7C 4N1, Canada",49.1742090734388,-123.148997037066,"Seafood, Cantonese"
nkDZY5xqihF3XtZMzzfqqg,Hokkaido Ramen Santouka,"558 W Broadway, Vancouver, BC V5Z 1E9, Canada",49.263127,-123.1168917,"Noodles, Ramen, Soup"
raZ-NDBs9S1j9fPONh4fWw,Vij's Restaurant,"3106 Cambie Street, Vancouver, BC V5Z 2W2, Canada",49.25754,-123.11479,Indian
NnaE4IKlc6XdYOUu4IOV5w,49th Parallel Coffee,"2902 Main Street, Vancouver, BC V5T 0C1, Canada",49.2591330651218,-123.10088478104,"Cafes, Coffee & Tea, Donuts"
X6BwoRVw9SZllZ4jAMfdSQ,Suyo Modern Peruvian,"3475 Main Street, Vancouver, BC V5V 3M9, Canada",49.2540292,-123.1010659958052,"Peruvian, Cocktail Bars"
4118Aq9LbkvUr4s719uUkA,Uma Sushi,"450 W 8th Avenue, Vancouver, BC V5Y 1N9, Canada",49.2638048,-123.1137294,"Japanese, Sushi Bars"
pSburEkD_dG8gIcP39TOog,Maruhachi Ra-Men,"270 Robson Street, Vancouver, BC V6B 0E7, Canada",49.27854065320407,-123.1157914,Ramen
6SkhB1tM6K3gJSVgil6scQ,Batard Boulangerie & Cafe Moderne,"3958 Fraser Street, Vancouver, BC V5V 4E4, Canada",49.2495337429805,-123.089919893626,"Coffee & Tea, Bakeries, French"
UqqkI-YNmfpng4BKj8kxcg,Sushi Hachi Japanese Restaurant,"8888 Odlin Crescent, Suite 1278, Richmond, BC V6X 3Z8, Canada",49.18412,-123.1263,"Japanese, Sushi Bars"
-naJRqkmbos0UeWApfEvtw,The Parlour,"1011 Hamilton Street, Vancouver, BC V6B 5T4, Canada",49.276835,-123.120221,"Pizza, Lounges, Tapas/Small Plates"
Nk5Hsw1SlRF6I1HcY5EGdA,Damien's Belgian Waffle,"2 3891 Chatham Street, Richmond, BC V7E 2Z6, Canada",49.12673186652474,-123.18215680869436,"Bakeries, Waffles"
l0cLT4c59zu0H8MVwp7vqA,Sula Indian Restaurant,"1128 Commercial Drive, Vancouver, BC V5L 2N1, Canada",49.2745279,-123.0693263,Indian
AaMZxsuyT1nLYV8ztvnB8g,Sushi Bar Shu,"8099 Granville Street, Vancouver, BC V6P 4Z5, Canada",49.2123904,-123.14068048650988,Sushi Bars
AoLyGNqn97NKo1XqQxI75g,Sula- Main Street,"4172 Main Street, Vancouver, BC V5V 3P7, Canada",49.24797017503239,-123.10079066069838,"Indian, Seafood"
2rME5YVpz8HlUXmEXuR-ew,The Templeton,"1087 Granville Street, Vancouver, BC V6Z 1L4, Canada",49.278481,-123.12461074049284,"Breakfast & Brunch, Burgers, Tapas/Small Plates"
hhEZldyc-CZMP3WYysiqgg,Delara,"2272 W 4th Avenue, Vancouver, BC V6K 1N8, Canada",49.2680486,-123.1569183,Persian/Iranian
24gPFeyphGmg_pxiMT3eGA,The Viet Noodle Guy,"1902 Rosser Avenue, Burnaby, BC V5C 3Z2, Canada",49.26721987665755,-123.00572763320037,Vietnamese
z2tHNBxoQ-_CoczbhzLNrQ,TAKO,"601 Expo Boulevard, Vancouver, BC V6B 0J5, Canada",49.278816,-123.1078822,"Korean, Mexican"
1tJ25j22FXmkuQQW0F_Qfg,Afghan Horsemen Restaurant,"1833 Anderson Street, Suite 202, Vancouver, BC V6H 4E5, Canada",49.2694847203493,-123.138735294342,"Middle Eastern, Afghan, Kebab"
KqsG8n-13fBeO0L21f77Kw,Basil Garden,"2889 E Broadway, Vancouver, BC V5M 1Y9, Canada",49.2622628991938,-123.044808884517,Vietnamese
am_7DITNOYF9-ugst7QI8Q,Micha,"120-4751 Garden City Road, Richmond, BC V6X 3M7, Canada",49.17810985583113,-123.12536802209044,"Chinese, Taiwanese, Bubble Tea"
RWiQ7LyMroNtBR9JGlYozg,Downlow Chicken Shack,"905 Commercial Drive, Vancouver, BC V5L 2H2, Canada",49.2765067,-123.0696349,Chicken Shop
qVsdjx-sy21kZlpWlo_sDQ,Fior di Latte,"100B-4233 Hastings Street, Burnaby, BC V5C 2J5, Canada",49.2811681929463,-123.010165952146,"Cafes, Patisserie/Cake Shop, Ice Cream & Frozen Yogurt"
mKp5lyy0GTV0hGNEkuwuQQ,East is East,"4433 Main Street, Vancouver, BC V6K 2G9, Canada",49.2452136,-123.1014916,"Middle Eastern, Indian"
kZN_-zju67rEQVUSaewRhA,Brix & Mortar,"1137 Hamilton Street, Vancouver, BC V6B 5P6, Canada",49.275633270546194,-123.12192123186074,"Wine Bars, Canadian (New), Venues & Event Spaces"
NensKn1MSVU_rm-1Y6WlFA,Marulilu Cafe,"451 W Broadway, Vancouver, BC V5Y 1R4, Canada",49.26338,-123.11415,Cafes
GepW_CkeEoPbg-0fLb5FGw,Pepino's,"631 Commercial Drive, Vancouver, BC V5L 3W3, Canada",49.2787695,-123.0705849,"Italian, Salad, Pizza"
Bo30wYCWWy5M9g1W7GQ5SQ,Au Comptoir,"2278 W 4th Avenue, Vancouver, BC V6K 1N8, Canada",49.268034328356,-123.15672487756,French
a_uX_ffrbXsWgUpD5pjW7g,Bodega On Main,"1014 Main Street, Vancouver, BC V6A 2W1, Canada",49.27548853708847,-123.09968391901442,"Spanish, Tapas/Small Plates, Tapas Bars"
F5wxgIiZE7LYQxgqhI483A,Seaport City Seafood Restaurant,"2425 Cambie Street, Vancouver, BC V5Z 4M5, Canada",49.263921119674905,-123.115152,"Dim Sum, Seafood, Cantonese"
6k1omPa3O3Kl7lSjXfCxvA,Octopus Garden,"1995 Cornwall Avenue, Vancouver, BC V6J 1C9, Canada",49.2726349,-123.149816,"Japanese, Sushi Bars"
YV2SRY8hVtfeWUioCdVMPw,Happy Day Cafe,"1450-4771 McClelland Road, Richmond, BC V6X 0M5, Canada",49.178094,-123.122693,"Hong Kong Style Cafe, Cantonese"
lZK8Lc-eJDrCllz6DHgVdw,The Canadian Brewhouse & Grill,"4755 Mcclelland Road, Unit 1305, Richmond, BC V6X 0M5, Canada",49.17762,-123.12371,"Sports Bars, Canadian (New), Pubs"
YsLitMbVWy7kSveeGsjfFg,Deer Garden Signatures,"8580 Alexandra Road, Suite 2015, Richmond, BC V6X 1C3, Canada",49.1781340826239,-123.127494991174,"Chinese, Hong Kong Style Cafe"
xo1nhUA5UAAnqFEJzIIcDQ,Thai Son Restaurant,"4791 McClelland Road, Richmond, BC V6X, Canada",49.177725085133915,-123.12170310592684,"Vietnamese, Noodles"
dFzDHiN52S96A9rfp1-PoQ,Snowy Village Dessert Cafe,"8571 Alexandra Road, Unit 113, Richmond, BC V6X 1C3, Canada",49.1785932012866,-123.127934497921,"Cafes, Ice Cream & Frozen Yogurt"
92U-Qc1Vxv8--Yohvk8nRg,Tsukiji Japanese Restaurant,"4751 Garden City Rd, Richmond, BC V6X 3M7, Canada",49.178615,-123.1248149,"Japanese, Sushi Bars"
cpkyRpNWllRmOhM_qlsdiQ,Yuu Japanese Tapas,"1118 - 3779 Sexsmith Road, Richmond, BC V6X 3Z9, Canada",49.1854909156919,-123.129109648049,"Japanese, Asian Fusion, Tapas Bars"
50nC8Xeu_Z0tKuGWHjIiwg,Nando's Peri-Peri,"4711 Mcclelland Road, Unit 1005, Central at Garden City, Richmond, BC V6X 0M5, Canada",49.17855951502775,-123.1217548,"Portuguese, South African, Chicken Shop"
22LmltViij6maiy2RzphoA,Shine Valley Lamb Soup,"2215-4653 Garden City Road, Richmond, BC V6X 2K4, Canada",49.17900632506066,-123.12552726070216,"Food Court, Chinese, Soup"
3_AK31Wj9-1dbPZ1fdX_-Q,Earls Kitchen + Bar,"5300 No. 3 Road, 304, Richmond, BC V6X 2X9, Canada",49.17631955371339,-123.13191084403664,"Canadian (New), Cocktail Bars, Seafood"
yCYr3xlR46H8uj1MlA-dMg,Pepper Lunch,"4791 Mcclelland Road, Unit 1625, Richmond, BC V6X 0M5, Canada",49.1775638,-123.1215779,Japanese
2eKo9QPrfT0yPKniPaHoqw,Gee! Taste Good,"8888 Odlin Crescent, Unit 2200, Richmond, BC V6X 3Z8, Canada",49.1841202,-123.126297,"Indonesian, Malaysian"
atBR1ybIpwSEfV2nSZcC9w,Me + Crepe,"128-8531 Alexandra Road, Richmond, BC V6X 1C3, Canada",49.1784449,-123.1283912,"Creperies, Breakfast & Brunch, Chinese"
wcPHIffCI8mg5sBgNdGr5Q,Garden City Hot Pot,"1205 - 8788 McKim Way, Richmond, BC V6X 4E2, Canada",49.1835039,-123.125112,"Dim Sum, Hot Pot"
ghCJpnO_mBQXc0r7AU5X7w,Sura Korean BBQ,"4151 Hazelbridge Way, Unit 1830, Richmond, BC V6X 4J7, Canada",49.183364007189134,-123.13371992699436,"Korean, Barbeque"
huigH6_4ANvccJ5OHVbfTg,The Shellfish Shack,"1100-8580 Alexandra Road, Richmond, BC V6X 4B3, Canada",49.1779,-123.12756,"Seafood, Fish & Chips"
utLZPZT0y9mGmmNZkhsKwQ,Bubble Queen,"8888 Odlin Crescent, Suite 1180, Richmond, BC V6X 3Z8, Canada",49.183715168097606,-123.12570844110448,"Bubble Tea, Waffles"
Q4u7W5grwSKZy-suUKhtqw,No 9 Restaurant 九記餐廳,"5300 No 3 Road, Unit 812, Richmond, BC V6X 2X9, Canada",49.17534412787543,-123.13432097116336,"Asian Fusion, Cantonese, Hong Kong Style Cafe"
7vd6bGYpZb0yfeNidFVExg,Matsuyama Japanese Restaurant,"8500 Alexandra Road, Suite 110, Richmond, BC V6X 3L4, Canada",49.1781781,-123.1291034,"Japanese, Sushi Bars"
lzec5ZvTmFuq3UNZhPkmUw,Gyo-O,"3779 Sexsmith Road, Suite 2137, Richmond, BC V6X, Canada",49.1849605,-123.1282953,"Seafood, Ramen"
rMf-FEh7ZhW9Sepjiyef6w,Pearl Castle Café,"3779 Sexsmith Road, Suite 1128, Richmond, BC V6X 3Z9, Canada",49.1856964929706,-123.129386454821,"Taiwanese, Bubble Tea"
ZzK99Z5oWteQVlBtdm9r1w,Chef Hung Taiwanese Beef Noodle,"4151 Hazelbridge Way, Unit 2800, Richmond, BC V6X 4J7, Canada",49.18408,-123.13404,"Taiwanese, Chinese, Noodles"
CCV_rtjUHKhJA0JLruwImw,Double Double Restaurant 老油条,"4600 No 3 Road, Suite 128, Richmond, BC V6X 2C2, Canada",49.18038,-123.13547,"Cantonese, Seafood"
1ljNE10i9F5uUzYRfpm-Qw,Liuyishou Hotpot Richmond,"150-4731 Garden City Road, Richmond, BC V6Y 1P9, Canada",49.17851127364,-123.125910800762,"Chinese, Hot Pot"
9AeLEFMwdkF8-bQ8e-GddA,Lido Restaurant,"150-4231 Hazelbridge Way, Richmond, BC V6X 3L7, Canada",49.18254316529722,-123.13415835841272,Hong Kong Style Cafe
RfNSgDWYQXcZd6zqCPIEAQ,Silver Tower Cafe Restaurant,"100 - 8500 Alexandra Road, Richmond, BC V6X 3L4, Canada",49.1781781,-123.1291034,"Hong Kong Style Cafe, Cantonese"
DmDpszR3P-ElUIO9TF4Tow,The Deluxe Chinese Restaurant,"4260 No. 3 Road, Suite 120, Richmond, BC V6X 2C2, Canada",49.182896222464635,-123.13596788748885,"Dim Sum, Seafood, Cantonese"
jj1vybPhLHpLE0YuAa0Tig,Little Karp,"8631 Alexandra Road, Unit 110, Richmond, BC V6X 1C3, Canada",49.17854667623126,-123.1270468980074,"Bars, Seafood, Canadian (New)"
4D-Zch0ujcLmny70Ct9WNQ,Kam Tou Seafood Restaurant,"3779 Sexsmith Road, Unit 1298, Richmond, BC V6X 3Z9, Canada",49.185102,-123.129532,"Seafood, Dim Sum, Cantonese"
sNDfYZP9OYypywbi33aSxw,Top Shanghai Cuisine Restaurant,"120-8100 Ackroyd Road, Richmond, BC V6X 3K2, Canada",49.171282,-123.135086,"Chinese, Dumplings"
HwshBcGdHULKiEBAb_fTWQ,Kyabia Japanese Restaurant,"1028-8300 Capstan Way, Richmond, BC V6X 4B7, Canada",49.18769,-123.13128,"Japanese, Sushi Bars"
ORbYIXH2q5SUVxSrbrZoHQ,Ajishou Japanese Cuisine,"1610-4791 Mcclelland Road, Richmond, BC V6X 0M5, Canada",49.177634,-123.121716,"Japanese, Seafood, Sushi Bars"
7gPI7UHU0TxDZ_yDQpVJqw,Bbq Chicken Lemon,"130-8631 Alexandra Road, Richmond, BC V6X 1C3, Canada",49.178466108370365,-123.12706600874664,"Chicken Shop, Korean, Barbeque"
FAmFPzZNxgPQXWiJM8vz0w,Origin Cafe,"2275-8888 Odlin Crescent, Richmond, BC V6X 3Z8, Canada",49.18412,-123.1263,"Coffee & Tea, Cafes, Desserts"
i8h0zIQsuu9YPz8iYqqSNA,Jade Seafood Restaurant,"2811 No 3 Road, Unit 280, Richmond, BC V6X 2B2, Canada",49.19318963820905,-123.12975828220316,"Seafood, Dim Sum, Cantonese"
dzCaeOgzqU9lKG9fkVGpag,Avery Cakes & Tea House,"112-4751 Garden City Rd, Richmond, BC V6X 3M7, Canada",49.17823171586219,-123.12537482210053,"Desserts, Breakfast & Brunch, Steakhouses"
lug97x28ybkWk3dotVrVMA,Italian Tomato Restaurant,"8380 Bridgeport Road, Richmond, BC V6X 3C7, Canada",49.19188,-123.1303,"Italian, Pizza"
b_PPjyKRb1cf09fvFs4ZMw,AFURI ramen + dumpling,"140-7971 Alderbridge Way, Richmond, BC V6X 2A4, Canada",49.1778125340391,-123.138179071248,"Ramen, Dumplings"
ipHZolIDzXIKfElqrzTTMQ,Cherry's Food House,"1015-8580 Alexander Road, Richmond, BC V6X 4B3, Canada",49.1781751,-123.1278816,"Asian Fusion, Korean"
VGq9wu_ZtvonP1Rke4CxYw,R & H Chinese Food,"5300 No 3 Road, Richmond, BC V6X 2X9, Canada",49.17571487673434,-123.13191884109996,"Chinese, Food Court, Dumplings"
NIhqNI90BS7IkUSj9FjnJw,Samsoonie Noodle & Rice,"140-8211 Westminster Highway, Suite 140, Richmond, BC V6X 1A7, Canada",49.1707688466573,-123.133460687081,"Korean, Ramen"
B_vl6zdincgCrlU0T3bPIA,Soup Curry Garaku Richmond,"4151 Hazelbridge Way, Unit 1360, Richmond, BC V6X 0A4, Canada",49.183962,-123.133538,"Comfort Food, Soup"
lOA7o1IGnhx2YrbhYQHsLQ,Gyu-Kaku Japanese BBQ,"7971 Alderbridge Way, Unit 120, Richmond, BC V6X 2A4, Canada",49.1774949,-123.1372648,"Japanese, Barbeque, Asian Fusion"
on7KUqEgzazOBfl2wUd1pw,Sanpoutei Ramen,"160-4328 No. 3 Road, Richmond, BC V6X 2C2, Canada",49.18217474624903,-123.1356582,"Ramen, Noodles"
2Cxky-NIGL7DoCSLbzoPuA,Max Noodle House,"8291 - 190 Alexandra Road, Suite 185, Richmond, BC V6X 1C3, Canada",49.17904244470185,-123.13236086737967,"Noodles, Cantonese, Asian Fusion"
qUPxTZVu6Iz-d2tDbPl-Dg,Chicko Chicken,"135-4328 No.3 Road, Richmond, BC V6X 3L7, Canada",49.1821791,-123.1358221,"Chicken Shop, Korean"
aFdoe7NJGq9Kk8WjD9RcgA,Cha Kee,"8181 Cambie Road, Richmond, BC V6X 3X9, Canada",49.18502334103488,-123.13397151341375,Hong Kong Style Cafe
fUmCbhF2S-FBcaxgtemaKQ,Happy Tree House BBQ,"105 - 8171 Alexandra Road, Richmond, BC V6X 1C3, Canada",49.1789476669097,-123.13367071167,"Barbeque, Chinese"
sDaallW8MfssNM9YELedeA,Leisure Tea & Coffee,"8391 Alexandra Road, Richmond, BC V6X 3W5, Canada",49.1784663,-123.1303743,"Coffee & Tea, Cafes, Desserts"
dDvgEm3PCCEiRfmxlufOmA,Mui Garden Restaurant,"5960 Minoru Boulevard, Richmond, BC V6X 3J3, Canada",49.17094,-123.13959,"Malaysian, Hong Kong Style Cafe"
IKpX-kPCRtVCKPUp_5rSzA,Big Way Hot Pot,"4940 Number 3 Road, Unit 123, Richmond, BC V6X 3A5, Canada",49.178096035517456,-123.13579502209046,Hot Pot
LdvqbDo2MxUOmBLRczj_uA,Xiaolongkan Hotpot,"8320 Alexandra Road, Richmond, BC V6X 1C4, Canada",49.1782151,-123.1313324,"Hot Pot, Chinese"
KWXF9moZFLMv_70mXfbv-w,Spice World Hotpot Restaurant,"8580 Alexandra Road, Unit 1060, Richmond, BC V6X 4B3, Canada",49.1778510035881,-123.12732142157,Hot Pot
opVJrZaJZKJk5zHyCMtetg,Empire Seafood Restaurant,"5951 No 3 Road, Unit 200, London Plaza, Richmond, BC V6X 2E3, Canada",49.170860309787,-123.1370628440032,"Seafood, Dim Sum, Cantonese"
s8GuNWKlwunSdDnz84iyPw,Sing Yee Chinese Restaurant,"3779 Sexsmith Road, Suite 2118, Richmond, BC V6X 3Z9, Canada",49.1849605,-123.1282953,"Seafood, Cantonese, Noodles"
iYkYHAGzTqGuNHxx2_u2lA,Yunshang Rice Noodle House,"130-8100 Ackroyd Road, Richmond, BC V6X 3K2, Canada",49.17138643949844,-123.13499887341528,"Chinese, Noodles"
XqaO85CV9Km7m_aQ3iIpRA,Cactus Club Cafe,"1666-6551 Number 3 Road, Richmond, BC V6Y 2B6, Canada",49.1663017272949,-123.136711120605,"Cocktail Bars, Canadian (New), Sushi Bars"
DqxAArHOssu55PBlh7A5Wg,Tsim Chai Noodle Restaurant 沾仔記,"8251 Westminster Highway, Suite 50, Richmond, BC V6X 1A7, Canada",49.170649,-123.132948,"Noodles, Cantonese, Soup"
BLITQJYfKJSQ9XNuk8pIrw,Parker Place Aberdeen Meat & B.B.Q,"1020 - 4380 No 3 Rd, Richmond, BC V6X 3V7, Canada",49.1819617,-123.1364551,"Meat Shops, Barbeque, Chinese"
AJOiPJPEei53qh94tG3jFw,Neptune Seafood Restaurant,"8171 Ackroyd Road, Suite 100, Richmond, BC V6X 3K1, Canada",49.172848,-123.136191,"Seafood, Dim Sum, Cantonese"
dSXGjT-BWohmTPBPM7F_AA,BLOCK 18 Cart Noodle,"8400 Alexandra Road, Suite 190, Richmond, BC V6X 1C3, Canada",49.17763018043894,-123.1303590908651,"Noodles, Chinese"
CXkTS1wzIHSC3gE1lkZrMA,Neptune Wonton Noodle,"8171 Ackroyd Road, Suite 110, Richmond, BC V6X 3K1, Canada",49.173002,-123.135994,"Cantonese, Noodles"
A-DqrLQRMFRsQybEl4y9AA,Uncle Lu,"1101 - 3779 Sexsmith Road, Richmond, BC V6X 1J8, Canada",49.18570262126169,-123.12860998281006,Taiwanese
qBNw40i-zBJRxJFrvYwaqw,Dolpan Seoul BBQ,"3779 Sexsmith Road, Richmond, BC V6X 3Z9, Canada",49.1856566095323,-123.129203394055,"Korean, Barbeque"
yEqaiZcK9ocCoNfJvhjxoA,Tasty BBQ & Beer Bar,"180-7771 Westminster Highway, Richmond, BC V6X 3Y5, Canada",49.170526,-123.13959,"Chinese, Barbeque, Beer Bar"
cydTwL_rvQJGyqZUfv8vgQ,Prata Man Restaurant,"180-9020 Capstan Way, Richmond, BC V6X 3V9, Canada",49.18724,-123.12425,Singaporean
y8u8Viz24mJ0_k1xxKpq2g,Red Star Seafood Restaurant,"8181 Cambie Road, Suite 2200, Richmond, BC V6X 3X9, Canada",49.185221117795,-123.13438543465,"Dim Sum, Seafood, Cantonese"
szA1NoAOt5xxuzSVUDRzXw,Moxies,"3233 St. Edwards Drive, Richmond, BC V6X 3K4, Canada",49.1905595,-123.1124749,"Steakhouses, Canadian (New), Lounges"
mT1rn_dTTTuKhK_DyK_Dzg,Gigi Blin,"1400 W 70th Avenue, Vancouver, BC V6P 2Z2, Canada",49.20844,-123.13811,"Cafes, Bakeries, Sandwiches"
cQGAz4JA6j3W9SWW6bYCXg,Long’s Noodle,"4731 Garden City Road, Unit 140, Richmond, BC V6X 3M7, Canada",49.178717650366266,-123.12585876329906,"Dim Sum, Noodles, Soup"
H34zA_gLdKWUqLOyUl-TFw,Sushi Wow,"8273 Granville Street, Vancouver, BC V6P, Canada",49.2116601,-123.14073481288014,"Japanese, Sushi Bars"
WgMWmXyJ0MnSisfSL9hq8w,4 Stones Vegetarian Cuisine,"7771 Westminster Highway, Unit 160, Richmond, BC V6X 1A4, Canada",49.170762,-123.139704,Vegetarian
3toEKAZPLlAmcSmdF1XZLg,Man Ri Sung,"4151 Hazelbridge Way, Unit 3600, Richmond, BC V6X 4J7, Canada",49.1833231250183,-123.133677830513,Korean
ZBHPKee7Ar99B2JWKKYqww,75 West Coast Grill,"Vancouver Airport Marriott Hotel, 7571 Westminster Highway, Richmond, BC V6X 1A3, Canada",49.170509,-123.140563,"Lounges, Tapas/Small Plates, Canadian (New)"
FuUQnd60DKmvnMTH1XWIcw,Dinesty Dumpling House,"150-5555 Gilbert Road, Richmond, BC V7C 0B8, Canada",49.17337272804199,-123.14636050013584,"Dim Sum, Dumplings"
siRF0uiyuIc9GuWTDws1QA,Ramen Takanotsume,"4151 Hazelbridge Way, Unit 2780, Richmond, BC V6X 0A4, Canada",49.1841116494066,-123.133542872965,Ramen
IQxFVUxFfSo_7IlHClvsaw,The Captain's Boil,"1226-8338 Capstan Way, Richmond, BC V6X 4B5, Canada",49.1877764,-123.1298538,"Cajun/Creole, Seafood, Asian Fusion"
FvPVpiKOkSWC0plEyYc8IQ,Koto Izakaya,"8171 Alexandra Road, Suite 101, Richmond, BC V6X 1C3, Canada",49.1785,-123.13362,"Japanese, Sushi Bars"
5lfFskgH271MZWmcozWSYQ,The Apron,"3099 Corvette Way, The Westin Wall Centre Vancouver Airport Hotel, Richmond, BC V6X 4K3, Canada",49.19085129402266,-123.13391892507546,"Breakfast & Brunch, Wine Bars, Diners"
Lo5-InqZGlFynMqdZDBpIw,Manzo Japanese Itamae,"9020 Capstan Way, Suite 120, Richmond, BC V6X 1R4, Canada",49.1876614377628,-123.127475883545,Japanese
MS0zkCvbBrkelr4q5eIE0g,Shun Feng Seafood Restaurant,"4380 No 3 Road, Unit 1425, Richmond, BC V6X 3V7, Canada",49.1799080179953,-123.135452270508,"Seafood, Dim Sum, Cantonese"
l0YNJqiMp_IHsdVVL3OnfA,Suhang Restaurant,"8291 Ackroyd Road, Unit 100, Richmond, BC V6X 3K5, Canada",49.17232523412259,-123.13318215565974,Chinese
341_EHdz7-4bBL8cMwBOgA,Kam Ho Noodle Express,"2083-8700 McKim Way, Richmond, BC V6X 3Z7, Canada",49.1834951,-123.1268186,"Noodles, Cantonese"
UqXaDDqKv2x3dZ4_tX9wbg,Old Xian's Food,"1111 3779 Sexsmith Road, Richmond, BC V6X 3Z9, Canada",49.1852876,-123.1290331,Chinese
ba8MmdNcuJYxOMK2FWjvXQ,Dragon Group Seafood Restaurant,"4751 Garden City Road, Richmond, BC V6X 3M7, Canada",49.1778682043553,-123.125540837646,"Dim Sum, Seafood, Cantonese"
SQo3j_PrRgQlbR9c4ctjUA,Sea Harbour Seafood Restaurant,"150-8888 River Road, Richmond, BC V6X 0E1, Canada",49.19632027137996,-123.12618234323168,"Dim Sum, Seafood, Cantonese"
fhJZ6PGl9f_rffjbS2lXVw,Tin Tin Seafood Harbour,"3711 No. 3 Road, Richmond, BC V6X 2B8, Canada",49.1868795450912,-123.135617048199,"Dim Sum, Seafood, Cantonese"
p1FElOKJUkFOpXx4dvTwEg,Tokyo Joe Sushi,"130-8211 Ackroyd Road, Richmond, BC V6X 3K8, Canada",49.172186088951655,-123.1336462733865,"Japanese, Sushi Bars"
jOZ6AKjTuOWZ7tUabuZq9A,Mirchi Restaurant,"7964 Granville Street, Vancouver, BC V6P 4Z2, Canada",49.21353,-123.13995,Indian
ptR2E0LvyxOXHdZKRuHq3Q,Eggette House,"1680-8260 Westminster Highway, Richmond, BC V6X 3Y2, Canada",49.1698182955669,-123.13311645682064,"Waffles, Hong Kong Style Cafe"
cYQGwxPKRS-gtNq1Cf3Rkg,Sanbo Chinese Restaurant,"121-4600 No. 3 Road, Richmond, BC V6X 2C2, Canada",49.180517762258305,-123.13516403694872,Cantonese
6YWKbrVFZvZ9CwzRKbfspA,Hazukido,"4151 Hazelbridge Way, Level 1, Unit 1008, Aberdeen Centre, Richmond, BC V6X 4J7, Canada",49.18380069478576,-123.1344077734406,"Bakeries, Cafes, Sandwiches"
BJ_B0Ov1z4U8F8mURQlgvQ,Afghan Chopan Bakery & Diner,"8260 Westminster Highway, Richmond, BC V6X, Canada",49.1700051,-123.1331254,"Afghan, Bakeries, Middle Eastern"
0-sseH7DK7W7jyhkZ8V4xg,Sea Fortune Restaurant,"8360 Granville Ave, Richmond, BC V6Y 1P3, Canada",49.1619810150725,-123.131678165708,"Dim Sum, Seafood"
K3SIqx8yVhRr7bgeHGx6Tw,Gyubee Japanese Grill,"8100 Ackroyd Road, 50, Richmond, BC V6X 3K2, Canada",49.1714257,-123.1348388,"Japanese, Barbeque, Breakfast & Brunch"
sm3xJI5PEJVGuyS1opVnDg,CHOCHO Hot Pot - Richmond,"4151 Hazelbridge Wy, Suite 1150, Richmond, BC V6X 0A4, Canada",49.18399,-123.133644,"Hot Pot, Chinese, Asian Fusion"
EXfEzv1sg3smvXJo36hSmQ,L A Chicken,"11780 Thorpe Road, Suite 160, Richmond, BC V6X 1J6, Canada",49.182917,-123.091874,"Chicken Wings, Fast Food"
Y6KI2-1Ut9xiE3s0xy55Bg,Canadian 2 for 1 Pizza,"8531 Alexandra Road, Richmond, BC V6X 1C3, Canada",49.1786138764932,-123.128647996293,"Pizza, Italian"
6mu04eyRBGj1AQh3Smoe4w,Yah Yah Ya Ramen,"8388 Capstan Way, Suite  1423, Richmond, BC V6X 4A7, Canada",49.1874832,-123.128596,"Ramen, Noodles"
ZXeOzD5kNtT8fEQIZA0BNg,Chops Steakhouse & Bar,"10251 St Edwards Dr, Richmond, BC V6X, Canada",49.1890367,-123.1120171,"Steakhouses, Lounges, Seafood"
CQRwbGlMlF9FDnQw7miCFg,Pho Han Restaurant,"9020 Capstan Way, Suite 110, Richmond, BC V6X 3V9, Canada",49.1875107171423,-123.123979456723,"Vietnamese, Noodles, Sandwiches"
DbrhwUo-4y7MmAEFPVwZaQ,SoyTalk,"1410-4380 No 3 Road, Richmond, BC V6X 3V7, Canada",49.1813728972946,-123.13589785248,"Desserts, Ice Cream & Frozen Yogurt, Sandwiches"
03ev-mJrbntGwIubnARkqg,Fogg 'n' Suds Restaurant & Beer Bar,"10720 Cambie Road, Richmond, BC V6X 1K8, Canada",49.1844693,-123.1054142,"Bars, American"
sU1DCO8fxotqac7W9B1quw,Toku Japanese Restaurant,"5300 No.3 Road, Suite 221, Richmond, BC V6X 2X9, Canada",49.1755327,-123.1324264,"Japanese, Sushi Bars"
WqaWBxfZNTKSJfoOEHynyA,Grill King,"1050 5300 No 3 Road, Richmond, BC V6X 2X9, Canada",49.17556349184984,-123.1325515999973,"Hong Kong Style Cafe, Noodles, Sandwiches"
1MQHDyIgK8dzjarHFmUyaA,Lotus Pho Restaurant,"4131 No 5 Road, Richmond, BC V6X 2T9, Canada",49.18342206802269,-123.09219910244676,"Vietnamese, Soup, Noodles"
pmvBtlp2MrU0P8jjqdzwLw,Gingeri Chinese Cuisine,"5300 No 3 Road, Richmond, BC V6X 2X9, Canada",49.1754267,-123.1324169,"Dim Sum, Seafood, Cantonese"
k7TgLsIoMU0x8O8WVFi0CQ,Golden Paramount Seafood Restaurant,"8111 Anderson Road, Richmond, BC V6Y 3Z8, Canada",49.16367,-123.13492,"Seafood, Dim Sum, Cantonese"
5x8Nwi_0cgJRYN-d7TI1kg,Gokudo Shabu Shabu Restaurant,"2133 - 3779 Sexsmith Road, Unit 2133, Richmond, BC V6X 3Z9, Canada",49.1849605,-123.1282953,"Chinese, Hot Pot, Taiwanese"
ISWFAr9izuKnF8pKIfBqbg,Sushi House,"3779 Sexsmith Road, Suite 2182, Richmond, BC V6X 3Z9, Canada",49.1849636976398,-123.129516759984,"Japanese, Sushi Bars"
iFrBtlOLMTASsRDfHSfiPQ,Cantonese BBQ Restaurant,"8388 Capstan Way, Suite1438, Richmond, BC V6X 4A7, Canada",49.18728,-123.1286,"Barbeque, Cantonese"
Ij0SYB7MOioaobRn9OwvUg,Paul's Kitchen,"4651 No. 3 Road, Real Canadian Superstore, Richmond, BC V6X 3V7, Canada",49.1794257,-123.1378312,"Chinese, Hong Kong Style Cafe"
MffdSugFNzIauDwVy826Eg,Cloud 9 Delicacy,"1370-4540 No 3 Road, Empire Centre, Richmond, BC V6X 4E4, Canada",49.18097074574548,-123.1349609785228,"Chinese, Taiwanese, Chicken Shop"
pWBJrO3f3zbaz9H0jmOw_Q,Lucky Joy BBQ Restaurant,"11780 Thorpe Rd, Richmond, BC V6X 1J5, Canada",49.18297,-123.09197,"Barbeque, Chinese"
yWT_1TH83o3OFYo-76tG6A,Gang Nam Korean BBQ Restaurant,"2065-4580 No 3 Road, Richmond, BC V6X 4E8, Canada",49.1802826047153,-123.133983508182,"Korean, Barbeque"
zux3l8BcJOdLcVlWg-1NGg,Tandoori Kona,"11700 Cambie Road, Suite 170, Richmond, BC V6X 1L5, Canada",49.18394469792218,-123.0933867912955,Indian
Ah79a_WbYfjxcd_K2zdGNg,Osmanthus,"4151 Hazelbridge Way, 2788, Richmond, BC V6X 3R8, Canada",49.184209849006095,-123.13357509035816,"Asian Fusion, Seafood, Dim Sum"
ULPFGbGUItbAfxKkordvwA,Kitcho Izakaya,"8788 McKim Way, Unit 1180, Cosmo Plaza, Richmond, BC V6X 4E2, Canada",49.183376,-123.125144,"Japanese, Sushi Bars, Seafood"
_lU8MxCG2PNyz1ZhjUkOrw,CAVU Kitchen Bar,"5911 Minoru Boulevard, Richmond, BC V6X 4C7, Canada",49.1716194,-123.1404495,"Bars, Canadian (New)"
4E7z12k9xFeGjD3apycQHQ,Enjoy Cafe 1 Plus1,"8171 Westminster Highway, Ste 200, Richmond, BC V6X 1A7, Canada",49.1708290571772,-123.13414408185102,"Cafes, Chinese"
sUoQzTT7T2Lgj10ql6Hyzw,Leung Kee,"3030-4151 Hazelbridge Way, Richmond, BC V6X, Canada",49.18408,-123.13404,Cantonese
RfNeLXGDx9llZA_SobmOkw,Chef Pin,"8571 Alexandra Rd, Richmond, BC V6X 1C3, Canada",49.1784449,-123.1279635,Hot Pot
uC_vwoRHaV6r4x1p35PB1Q,Van Tea Cafe,"150-9020 Capstan Way, Richmond, BC V6X 2X9, Canada",49.18724540382354,-123.1242122,"Coffee & Tea, Hong Kong Style Cafe, Cantonese"
2z_TN1Z2vKdKggCdk2-9Yg,Eggspectation,"10551 Street Edwards Drive, Richmond, BC V6X 3L8, Canada",49.1856414,-123.1084164,"Bars, Cafes, Breakfast & Brunch"
ZgfKS7two089Tdv6tmi43w,Ginger Indian Cuisine,"9100 Blundell Road, Suite 490, Richmond, BC V6Y 3R9, Canada",49.15413956143999,-123.1245297116645,Indian
9yc99vlfs8J9NGDZdEKUQg,Chef Tian's,"4711 Mcclelland Road, Suite 1010, Richmond, BC V6X 1C3, Canada",49.17866705997337,-123.12161808530392,Chinese
tv3tfOKy1tfW5_IEYK_ixw,Xi'an Cuisine,"8260 Westminster Highway, Suite 2370, Richmond, BC V6X 1A6, Canada",49.1700051,-123.1331254,"Chinese, Fast Food, Asian Fusion"
KFcTUeZo9l07QfryJoff9Q,Macau Cafe,"4380 No 3 Road, Unit 1385, Richmond, BC V6X 2C2, Canada",49.1817627195418,-123.13490854232748,"Portuguese, Asian Fusion, Chinese"
4RbwUWNoIge8iWwUVQbQqA,CoM Vietnamese,"120-7688 Alderbridge Way, Richmond, BC V6X 2A2, Canada",49.1742996981315,-123.143728561699,Vietnamese
8a8W2jtFwQRQW6_AXCvYDA,Wu Fung Dessert,"4151 Hazelbridge Way, Richmond, BC V6X 4J7, Canada",49.18408,-123.13404,"Chinese, Chicken Wings, Food Court"
dX7SxEJuojr7-1ooIhjpAQ,Talay Thai Restaurant,"8369 Granville St, Vancouver, BC V6P 4Z8, Canada",49.210809,-123.140764,Thai
anbmtc76RMKVC4OpfVUqWA,Master Rice Roll,"140-4200 Number 3 Road, Richmond, BC V6Y 1N5, Canada",49.183293,-123.135693,"Chinese, Breakfast & Brunch, Hong Kong Style Cafe"
jFymbtV7bs4lmHMFWFnaVg,Hello Nori,"6551 3 Road, Richmond, BC V6Y 2B6, Canada",49.16699017514505,-123.13932171016994,"Sushi Bars, Japanese"
NBka9Zh1CPmi1Y2lNFkmQw,Banzai Sushi House,"8251 Westminster Highway, Suite 40, Richmond, BC V6X 1A7, Canada",49.170692,-123.133071,"Japanese, Sushi Bars"
UnvsL678ItmvcYbNXTUhCw,Peaches,"8580 Alexandra Road, Unit 1020, Richmond, BC V6X 4B3, Canada",49.1781063932489,-123.127360152108,"Cantonese, Cafes"
BBGCrtu9Ph0MC2b3gIxh-g,La Amigo Restaurant,"8291 Alexandra Road, Richmond, BC V6X 1C3, Canada",49.17899810141639,-123.132088,Chinese
gvYejQuCHLWy1YYyMZ__Zg,Boiling Point,"4800 No 3 Road, Suite 130, Richmond, BC V6X 3A6, Canada",49.179126,-123.135529,"Taiwanese, Hot Pot, Comfort Food"
jPTwXyCL2Q3UzhO0uDrjHw,Cha Don,"4540 No 3 Road, Unit 1175, Richmond, BC V6X 4E4, Canada",49.180944,-123.13397399325407,Hong Kong Style Cafe
hZ97IM49A_vZYvskxlZFZw,Pho Anh Vu,"4751 Garden City Road, Unit 150, Richmond, BC V6X 3M7, Canada",49.1778683,-123.1255409,Vietnamese
i1mK2OCgygRRNQIv9rXc8Q,Pho Hoa Noodle Soup,"8500 Alexandra Road, Richmond, BC V6X 1C4, Canada",49.1781781,-123.1291034,Vietnamese
WrcR9xaOqoX6tlEJl_WcDQ,Wo Fung Noodle House,"8088 Park Road, Richmond, BC V6Y 2C4, Canada",49.164302186495064,-123.1352578,"Chicken Wings, Noodles, Hong Kong Style Cafe"
m_Tu4PBV7adWCsuwOrCT8g,The Buffet,"8811 River Road, River Rock Casino Resort, Richmond, BC V6X 3P8, Canada",49.19638887138004,-123.12777981455396,Buffets
N8MA40CiA8eT2aY8XOXHFw,Nam Dae Moon Rice Cake,"3779 Sexsmith Road, Unit 2132, Richmond, BC V6X 3Z9, Canada",49.18496873280979,-123.1293928028334,"Desserts, Korean, Patisserie/Cake Shop"
IUsl_bXP46285XCNU4Wt7g,Uncle Sal’s Shawarma ,"9040 Blundell Road, Unit 137, Richmond, BC V6Y 1K3, Canada",49.1548259,-123.124624,"Mediterranean, Halal, Middle Eastern"
2MYEt9bBWcOICeLdv0d2Ww,Well Tea,"4811 Hazelbridge Way, Suite 170, Richmond, BC V6X 3K7, Canada",49.179477,-123.1340946,"Coffee & Tea, Taiwanese"
KfWq4cvlWZPn3RAaK5TCqA,Royal Beef,"1620 - 4791 McClelland Road, Richmond, BC V6X 0M5, Canada",49.1775009,-123.1215049,Chinese
49rnQ1SoLNgHRuITrEpSRg,Manzo Japanese Restaurant,"8391 Alexandra Rd, Richmond, BC V6X 3W5, Canada",49.1784663,-123.1303743,Japanese
pod-xPN_L-PPFryRWQ4Rjw,The Meat Up,"3580 No 3 Road, Richmond, BC V6X 2C1, Canada",49.18744272226196,-123.13320155581869,"Barbeque, Chinese"
DEAqvWzqgbh1MbFIDNOn_g,Baiyulan Shanghai Cuisine,"129-4940 Number3 Road Richmond, Richmond, BC V6X 3A5, Canada",49.1778097396623,-123.13452351115,Chinese
cSmnmHEWCG3bO9ac7ON8eA,Myomi Sushi,"8780 Blundell Road, Suite 190, Richmond, BC V6Y 3Y8, Canada",49.155012,-123.1258496,"Sushi Bars, Ramen, Salad"
ZkLW-5ZhJYHRWEZ4-RGRtw,Royal Seafood,"200 - 8040 Garden City Road, Richmond, BC V6Y 2N9, Canada",49.154565,-123.123917,"Seafood, Dim Sum, Cantonese"
7VjbCZqbxIMUHd_2hA9QOw,Hainan Kitchen,"9100 Blundell Road, Suite 485, Richmond, BC V6Y 3X9, Canada",49.1553651,-123.1238682,"Singaporean, Malaysian"
itJfgtcJyGN19aJ1xNv_5g,Edokko Nigiri Sushi,"3679 Westminster Highway, Unit 120, Richmond, BC V7C 5V2, Canada",49.170506446971906,-123.181579,"Japanese, Sushi Bars"
uqIGHk5DgY2JtxQ-YnQLJQ,Toast to Coast Brunch Bar,"3760 Moncton Street, Suite 130, Richmond, BC V7E 3A6, Canada",49.12506792735429,-123.18257461360062,"Breakfast & Brunch, Coffee & Tea, Cocktail Bars"
m5s6mIWv_1QAv3wRWx_2gQ,Legends Pub & Restaurant,"9031 Blundell Road, Richmond, BC V6Y 1K4, Canada",49.155465,-123.124845,"Pubs, Canadian (New)"
K43Au1Z_sgQJKPP42J0wiA,Ichiro Japanese Restaurant,"12011 2nd Avenue, Richmond, BC V7E 3L6, Canada",49.126396,-123.184272,"Japanese, Sushi Bars"
sW_k0EWOVJlGuICIOiPCYw,Cafe & Life Co,"150-6833 Buswell Street, Richmond, BC V6Y 0L3, Canada",49.16367265363718,-123.13465985287418,"Breakfast & Brunch, Cafes, Desserts"
1JjSVb_JIu9BIdmFSuq3EA,Blue Canoe Waterfront Restaurant,"3866 Bayview Street, Suite 140, Richmond, BC V7E 4R7, Canada",49.1236847206306,-123.183580657745,Seafood
KPaYEBJS2OfQbU8AMtTKtw,Gami Sushi,"10111 Number 3 Road, Suite 126, Richmond, BC V7A 1W6, Canada",49.1396568327002,-123.13768749700104,"Japanese, Sushi Bars"
-RcVqtLDw3QwHbB_7Gw0MQ,Pho Lan,"6950 No 3 Road, Richmond, BC V6Y 2C1, Canada",49.16299,-123.136291,"Vietnamese, Noodles"
iiTcLc01EHNIWWyVdsCxPA,Hog Shack Cook House,"3900 Bayview Street, Suite 160, Richmond, BC V7E 0A4, Canada",49.1236909418851,-123.182399264021,Barbeque
9696WXlj9UsuFykiTOX7Wg,Wang Ji Restaurant Cafe,"470-9100 Blundell Road, Richmond, BC V6Y 3X9, Canada",49.154142,-123.124236,"Cantonese, Taiwanese, Japanese"
7jZLbIZIcJ2YvVYedjnHIw,Sushi Lovers,"170-4775 Blundell Road, Richmond, BC V7C 1H2, Canada",49.1559564496134,-123.17056338729,"Sushi Bars, Japanese"
po4c9EZPuoYTOimiUPVtVg,Sushi Aria,"150-9040 Blundell Road, Richmond, BC V6Y 1K3, Canada",49.154834,-123.124372,"Japanese, Sushi Bars"
VAk__Inn5FyC1wzrsvkLcw,Kove Kitchen,"3900 Bayview Street, Suite 140, Richmond, BC V7E, Canada",49.1235552783979,-123.182505144858,"Burgers, Salad"
rDvjCzZB_HsPbCfKIyMdTw,LA Grill & Bistro,"8100 No 2 Road, Suite 128A, Richmond, BC V7C 5J9, Canada",49.1536432938359,-123.158798217773,American
LfWXLvGkvcb6ZPR8kEtnpQ,Redbud Cafe,"120-8360 Granville Avenue, Richmond, BC V6Y 1P3, Canada",49.1622807256808,-123.131702194383,"Hong Kong Style Cafe, Cantonese, Sandwiches"
GyBY-pVhPN-A4CqPf5mmTA,Obanhmi,"6211 Buswell Street, Suite 140, Richmond, BC V6Y 4C3, Canada",49.16927551631675,-123.13405910194236,"Juice Bars & Smoothies, Vietnamese, Sandwiches"
1bP4v7kwOJ22YJmx3bqEqg,Pepper Lunch,"5951 No 3 Road, Unit 150, Richmond, BC V6X 2E3, Canada",49.17071,-123.13679,"Japanese, Steakhouses"
Zmrs8DCnSdRPjkOZ4DKiPA,Church's Texas Chicken,"9100 Blundell Road, Unit 120, Richmond, BC V6Y 3X9, Canada",49.155207673378136,-123.1237303455078,"Chicken Wings, Fast Food"
Ekh0RwAtNkw1LYDUfSMhNA,Free Bird,"5991 Alderbridge Way, Richmond, BC V6X 4C5, Canada",49.1703878761325,-123.144849725068,"Bars, Canadian (New)"
IW2dgLAPcJaZ9JVQizUjPA,Star 6 Indian cuisine,"170 4611 No 6 Road, Richmond, BC V6V 2L3, Canada",49.1799094,-123.0696283,Indian
6hmW1o4XwocLUBKh6Fb_zg,Shintaro Sushi,"3791 Bayview Street, Suite 230, Richmond, BC V7E 3M3, Canada",49.1242874978425,-123.18328895534,"Japanese, Sushi Bars"
-zYenEsSHXt8XfAy8lnAjg,Mega Sushi,"3131 Chatham Street, Suite 100, Richmond, BC V7E 2Y4, Canada",49.1266885824351,-123.190657374532,"Sushi Bars, Japanese"
HjQgK9y-4Na5MsSnsmJ4Pw,Hong Kong Flavor Restaurant,"104-10151 No.3 Road, Richmond, BC V7A 4R6, Canada",49.1391436753718,-123.138377844946,"Cantonese, Hong Kong Style Cafe, Breakfast & Brunch"
hj4BF9zrEdXw4tsxduLQpw,Westcoast Poke,"11666 Steveston Highway, Suite 3030, Ironwood Plaza, Richmond, BC V7A 1N6, Canada",49.13223459520562,-123.09558136751669,"Hawaiian, Poke"
4O3lfnrszTf8SdJLvV3hHA,Cora,"11380 Steveston Highway, Unit 170, Richmond, BC V7A 5J5, Canada",49.132159,-123.099182,Breakfast & Brunch
WtFZMgqitACFY1shVJ4aLQ,Kisha Poppo Japanese Restaurant,"1060-11660 Steveston Highway, Richmond, BC V7A 1N6, Canada",49.13305541917135,-123.09631551349466,"Japanese, Sushi Bars, Soup"
TBZWqZ9s8BO_YMAhouqa-g,Pho Ten,"11080 No 5 Road, Suite 130, Richmond, BC V7A 4E7, Canada",49.1320426607525,-123.091545846558,"Vietnamese, Noodles, Sandwiches"
PA774ZeQuRd4BF8tha-9rQ,Shawarma Palace,"11020 Number 5 Road, Suite 123, Richmond, BC V7A 4E7, Canada",49.1330299377441,-123.092056274414,"Salad, Sandwiches, Mediterranean"
u4yU-3qrMB92Hz6U78cAtA,Bubble Waffle Cafe - Ironwood,"Ironwood Plaza, 1030 11660 Steveston Highway, Richmond, BC V7A 1N6, Canada",49.1331951,-123.0958894,"Noodles, Waffles, Soup"
Z7hLhRu1K9aTKw6TRwCASg,Taverna Gorgona,"5047 48 Avenue, Delta, BC V4K 1W1, Canada",49.0902772,-123.083673,"Greek, Imported Food"
UOPiKJYgJ2Sa0g4mihTcSA,Big Star Sandwich,"100-11331 Coppersmith Way, Richmond, BC V7A 5J9, Canada",49.13150986277424,-123.09933517423984,Sandwiches
BKEQeYdFWTefL-doLMaHVA,Ember Indian Kitchen,"135-6160 London Road, Richmond, BC V7E 4J2, Canada",49.1167858801692,-123.157804367319,Indian
YCN6U2R7rns89MM_xwX1ng,Nyonya House,"110-3866 Bayview Street, Richmond, BC V7E 4R7, Canada",49.12373196441325,-123.1836441029352,Malaysian
uTTn0fxxGUBkHczNB-hgWA,Pho Khang,"10111 No 3 Road, Unit 206, Richmond, BC V7A 1G3, Canada",49.1398411,-123.1368649,"Vietnamese, Noodles"
ce4_w3I3a4hdM9GC6NJ0GA,Steveston Bakery,"12231 Number 1 Road, Richmond, BC V7E 1T6, Canada",49.12477947,-123.18138848,"Bakeries, Sandwiches, Breakfast & Brunch"
Btph8oAgHnTJ47emLtbsuw,Breakfast Table,"120-12480 No. 1 Road, Richmond, BC V7E 0A2, Canada",49.12421940000001,-123.180964,Breakfast & Brunch
qWD1p_AQFYLqrltgRzBFwg,Village Sushi Bar,"13020 Number 2 Road, Suite 150, Richmond, BC V7E 6S4, Canada",49.1186027526855,-123.158828735352,"Sushi Bars, Japanese"
HXWf_XzwsWenZH6M4hhzMQ,O'Hare's,"5031 Steveston Highway, Richmond, BC V7E 2K5, Canada",49.13404,-123.16924,"Canadian (New), Gastropubs"
j93Lkd1K225M5ov9me6Czw,Catch Kitchen + Bar,"3866 Bayview Street, Unit 200, Richmond, BC V7E 4R7, Canada",49.12393061019569,-123.18351528511036,"Sports Bars, Seafood"
9EEURRT5pRkqZl54tAZ6Hw,Boston Pizza,"2000-11662 Steveston Highway, Richmond, BC V7A 1N6, Canada",49.133073,-123.09557,Pizza
SFl5ymsQCnbNAsKrZe3RPg,Village Curry & Spice,"3804 Moncton Street, Richmond, BC V7E 3A7, Canada",49.12507626376477,-123.18226486444472,Indian
VU_OtK2j4NqaDOGxzuO75w,Cannery Cafe,"3711 Moncton Street, Richmond, BC V7E 3A3, Canada",49.125208,-123.1834819,"Canadian (New), Coffee & Tea, Dim Sum"
varEbkm0Yfkt_uCmr-5nXA,Gmen Japanese Ramen and Tapas,"3711 Bayview Street, Richmond, BC V7E 3B6, Canada",49.12439162030122,-123.18459912922198,"Ramen, Tapas/Small Plates"
wtSz2XTRFoyJllt0W9ZHZg,Taste of Zen,"9160 Steveston Highway, International Buddhist Society, Richmond, BC V7A 1M5, Canada",49.13293,-123.12171,"Vegetarian, Chinese"
jhaWDd6IzWN7cEdA4kZWdw,Oretachi Curry,"12420 No 1 Road, Unit 150, Richmond, BC V7E 6N2, Canada",49.12485864900564,-123.18107361457834,Japanese
60kBDlswhXjnFIZdPokCyg,D Original Sausage Haus,"12000 1st Avenue, Unit 130, Richmond, BC V7E 3L9, Canada",49.1262632,-123.1825342,"Delis, German"
XummZGEcwtkkWBYvMMntXw,Il Posto,"4866 Delta Street, Delta, BC V4K 2T8, Canada",49.0912945769059,-123.085881024599,Italian
QwBAl3ZfiAcSmDYUXQ6EqQ,Otaru Japanese Kitchen,"168-8180 No. 2 Road, Richmond, BC V7C 5J8, Canada",49.1541293168114,-123.15698217577,Sushi Bars
9yFENpDuJscBB0omm1Ewiw,Broli Kitchen,"186-8180 No 2 Road, Richmond, BC V7C 5K1, Canada",49.1537285,-123.1577868,Seafood
D-Ntb2rfy6B8pgUt9Fs52w,Japadog,"3211 Grant McConachie Way, Richmond, BC V7B 0A4, Canada",49.1947575,-123.1764082,"Food Stands, Hot Dogs"
NjfOmmWhh9bPcphX3r096Q,South Silk Road,"7260 Westminster Hwy, Richmond, BC V6X 1A1, Canada",49.16999129457479,-123.14373193498352,Chinese
RZRAufWmmXFuj7wPWR96uQ,Salmon N Bannock On The Fly,"3211 Grant McConachie Way, Vancouver International Airport, Richmond, BC V7B 0A4, Canada",49.196122,-123.176977,"Diners, Seafood, Canadian (New)"
G8Qv1X2hbCEAdLhHgJMJpg,Jing Tan Grill House,"5960 Minoru Boulevard, Unit 140, Richmond, BC V6X 3J3, Canada",49.1709073,-123.1396819,"Barbeque, Chinese"
cgJyTciNiRZt3U7WGrYCZw,Ora Sushi,"3651 Moncton Street, Suite 120, Richmond, BC V7E 3A5, Canada",49.12561,-123.18385,"Japanese, Sushi Bars"
3bsPqLesCt9FJ_wKOReCJg,Dave's Fish & Chips,"3460 Moncton Street, Richmond, BC V7E 3A2, Canada",49.12509659483665,-123.1851956087032,"Seafood, Fish & Chips"
97bRgPaMT2ZmqGOEtFbXWw,Kari House Restaurant,"3900 Bayview Street, Richmond, BC V7E 4R7, Canada",49.1235114156305,-123.18217150799,Malaysian
a3YY2ItzRI2M7zUHyQ8DAw,Okome,"150-11099 No. 1 Road, Richmond, BC V7E 1S6, Canada",49.1332015,-123.1817932,Japanese
fP65pd6r9P6cHyKGw2q1FQ,Pajo's,"12351 3 Avenue, Richmond, BC V7E 2Z1, Canada",49.12415171580162,-123.18643698505798,Fish & Chips
8tshgemLZLKcGGvNky5L_Q,Pizza Factory,"120 - 12020 First Avenue, Richmond, BC V7E 3L9, Canada",49.12587936298931,-123.18257784459388,Pizza
A8PvauadB3A5Yh7-a0JfLw,Little Mexico Cantina,"3131 Chatham Street, Unit 150, Richmond, BC V7E 2Y4, Canada",49.1266504,-123.1904974,Mexican
fdU9YPwiW3Qjb0-QMcIV4w,Best Bite Indian Cuisine,"10-3891 Chatham Street, Richmond, BC V7E 2Z6, Canada",49.1267,-123.18218,Indian
VamVDkD5MyZgZ18IuqKyVw,Timmy Kitchen,"100 - 3791 Bayview Street, Richmond, BC V7E 3B6, Canada",49.1243221,-123.18341072638933,"Chinese, Seafood, Hot Pot"
3KqpiLDAjeeMmZeU-Il_ng,Yokohama Teppanyaki,"12251 Number 1 Road, Suite 140, Richmond, BC V7E 1T6, Canada",49.1245995,-123.1812592,"Japanese, Sushi Bars"
9fMdrkeGuYFEUXmgPyb7AA,Aloha Hawaiian Grill,"3900 Bayview Street, Suite 110, Richmond, BC V7E 4R7, Canada",49.1237120255931,-123.18214687362232,Hawaiian
GQcYVzki2lKT4psa8S4RZw,Blenz Coffee,"3900 Bayview Street, Unit 105, Richmond, BC V7E 4R7, Canada",49.1237605496659,-123.182117745257,"Coffee & Tea, Sandwiches"
iONl1L8eLbLmZFENHae41Q,Shady Island Seafood Bar & Grill,"3800 Bayview Street, Richmond, BC V7E 6K7, Canada",49.12392342538035,-123.18389076661992,"Seafood, Bars"
p4bEiFv80KGqdpHztWaD_Q,Good Co Bar - Steveston,"4020 Bayview Street, Steveston, BC V7E 0B3, Canada",49.12357799785801,-123.1802343736107,"Bars, Chicken Wings"
vKIpb6S6C3Cc4GvDorBn2w,Moncton Pizzeria,"3680 Moncton Street, Richmond, BC V7E 3A4, Canada",49.12502509999999,-123.1836093,Pizza
W3fHTFr9TE6OwP2AOTRdhA,Kuroki Kaiseki Omakase Kitchen,"110-3880 Chatham Street, Richmond, BC V7E 2Z5, Canada",49.1262137,-123.1821282,"Japanese, Sushi Bars"
CHYGStOcv5MgdIwBpSDgSg,John's Pan Pizza,"12420 No 1 Road, Suite 130, Richmond, BC V7E 6N2, Canada",49.12477,-123.18087,"Pizza, Salad, Italian"
WGA6x5gJ7yum9kV8SSgrvw,Waves Coffee House,"120 - 12231 First Avenue, Richmond, BC V7E 3M3, Canada",49.1241798712256,-123.182890052597,"Coffee & Tea, Cafes"
evMi_871kCorAYHtpXOXvg,Steveston Built Local Taphouse & Grill,"130-12480 No 1Road, Richmond, BC V7E, Canada",49.1242901,-123.1810651,"Bars, Burgers"
v6GRZxd-96gojJrXKFcLdw,Domino's Pizza,"9471 No. 2 Road, Unit 120, Richmond, BC V7E 2C9, Canada",49.1442269580761,-123.1596855317645,"Pizza, Chicken Wings, Sandwiches"
dU_EN01lKd5N4pkcZtZGAQ,Torake,"130-9471 No 2 Road, Richmond, BC V7E 2C9, Canada",49.144259,-123.159658,Japanese
